Store Name,Street Address,Address,Borough,"Zip 
Code",Year Awarded,"Program 
Wave",Latitude,Longitude,Community Board,Council District,BIN,BBL,Census Tract (2020),Neighborhood Tabulation Area (NTA) (2020)
Rivas Deli Grocery,651 East 183rd Street,,Bronx,10458,2013,1,40.852568,-73.887484,206,15,"2,012,464","2,030,870,033",391,BX0603
C-Town,1761 Southern Boulevard,,Bronx,10460,2013,1,40.837267,-73.888016,203,15,"2,009,878","2,029,400,047",155,BX0303
La India Mini Market,1942 Marmion Avenue,,Bronx,10460,2013,1,40.842942,-73.887136,206,15,"2,010,156","2,029,600,059","36,502",BX0602
Los Hermanos,2019 Vyse Avenue,,Bronx,10460,2013,1,40.842391,-73.881835,206,15,"2,013,203","2,031,270,020",363,BX0601
Price Choice Food Market,820 East 180th Street,,Bronx,10460,2013,1,40.846173,-73.884871,206,15,"2,012,955","2,031,080,008","36,501",BX0602
D&A Deli Grocery,1155 East Tremont Avenue,,Bronx,10460,2013,1,40.839889,-73.875193,206,15,"2,042,470","2,040,070,022",220,BX0601
Lucky Star Gourmet Deli,856 East 188th Street,,Bronx,10460,2013,1,,,,,,,,
Food Choice,333 East 184th Street,,Bronx,10458,2013,1,40.858274,-73.896071,205,15,"2,010,979","2,030,220,001","39,902",BX0503
Cache Grocery,804 East 178th Street,,Bronx,10460,2013,1,40.844534,-73.887046,206,15,"2,012,942","2,031,070,004","36,501",BX0602
Associated Supermarket,1334 Louis Nine Boulevard,,Bronx,10459,2013,1,40.831535,-73.892337,203,17,"2,118,405","2,029,767,501",123,BX0303
AZ Deli,1093A Southern Boulevard,,Bronx,10459,2013,1,40.825924,-73.89193,202,17,"2,005,806","2,027,270,045","12,701",BX0202
Price Choice Food Market,807 Tremont Avenue,,Bronx,10460,2013,1,,,,,,,,
Key Foods,1050 Westchester Boulevard,,Bronx,10459,2013,1,,,,,,,,
Pioneer Supermarket,2865 Webester Avenue,,Bronx,10458,2013,1,,,,,,,,
Compare Foods,4800 Park Avenue,,Bronx,10458,2013,1,,,,,,,,
Met Supermarket,277 198th Street,,Bronx,10458,2013,1,,,,,,,,
EEJ Deli,550 East 187th Street,,Bronx,10458,2013,1,40.856385,-73.889152,206,15,"2,011,662","2,030,540,022",387,BX0603
Santana,4664 Park Avenue,,Bronx,10458,2013,1,40.85817,-73.892869,206,15,"2,011,392","2,030,400,007",385,BX0603
FineFare,1472 Boston Road,,Bronx,10460,2013,1,40.834235,-73.894884,203,17,"2,010,262","2,029,640,042",153,BX0303
Deli Grocery,275 East Kingsbridge Road,,Bronx,10458,2013,1,40.863691,-73.894244,207,15,"2,016,817","2,032,930,106","39,901",BX0701
965 Castillo Meat and Produce,965 East 172nd Street,,Bronx,10460,2013,1,40.833364,-73.887683,203,17,"2,010,797","2,029,960,049",157,BX0303
Santos,2641 Bainbridge Avenue,,Bronx,10458,2013,1,40.864814,-73.892048,207,15,"2,016,832","2,032,940,001","40,501",BX0702
Alondra Food Corp.,838 East 180th Street,,Bronx,10460,2013,1,40.8457,-73.883911,206,15,"2,088,384","2,031,180,157",363,BX0601
Brianelly,2308 Washington Avenue,,Bronx,10458,2013,1,40.855606,-73.892808,206,15,"2,011,628","2,030,530,062",385,BX0603
Emerald Food Store,2709-11 Briggs Avenue,,Bronx,10458,2013,1,40.866359,-73.891673,207,15,"2,115,734","2,033,000,055","40,501",BX0702
Bx Supermarket/Compare Foods,312 E. 194th Street,,Bronx,10458,2013,1,40.864421,-73.891799,207,15,"2,016,607","2,032,870,008","39,901",BX0701
1030 Deli & Food Corp,1030 East Tremont Avenue,,Bronx,10460,2013,1,40.840342,-73.88087,206,15,"2,000,000","2,030,057,501",359,BX0601
"Kelvin Food Mart, Inc",724 East 187th Street,,Bronx,10458,2013,1,40.853885,-73.883578,206,15,"2,092,312","2,031,020,029",393,BX0603
Stop One,2431 Hoffman Street,,Bronx,10458,2013,1,40.856754,-73.887821,206,15,,,387,BX0603
A-Mart,2433 Hoffman Street,,Bronx,10458,2013,1,40.856922,-73.887672,206,15,"2,011,809","2,030,580,105",387,BX0603
Modern Food,2385 Arthur Avenue,,Bronx,10458,2013,1,40.855237,-73.887849,206,15,"2,011,890","2,030,650,033",391,BX0603
Mickey & Elvis College,717 East 187th Street,,Bronx,10458,2013,1,40.854025,-73.883997,206,15,"2,012,928","2,031,050,058",389,BX0603
Bronx Zoo Deli Corp,732 East 187th Street,,Bronx,10460,2013,1,40.85375,-73.883112,206,15,"2,012,837","2,031,020,030",393,BX0603
548 Gourmet Deli,548 East 183rd Street,,Bronx,10458,2013,1,40.854186,-73.891042,206,15,"2,011,589","2,030,510,031",385,BX0603
Danery's Grocery Corp.,765 East 175th Street,,Bronx,10460,2013,1,40.841486,-73.891125,206,15,"2,010,014","2,029,530,001",367,BX0602
Will Grocery & Meat Market,1492 Vyse Avenue,,Bronx,10460,2013,1,40.833029,-73.888186,203,17,"2,010,757","2,029,950,017",157,BX0303
A & G Gourmet Deli,2132 Mohegan Avenue,,Bronx,10460,2013,1,40.84641,-73.882688,206,15,"2,013,164","2,031,240,043",363,BX0601
Caña Arriba,1465 Bryant Avenue,,Bronx,10460,2013,1,40.831953,-73.887823,203,17,"2,010,773","2,029,950,042",157,BX0303
885 East Tremont Deli,885 East Tremont Avenue,,Bronx,10460,2013,1,40.842463,-73.885123,206,15,"2,013,110","2,031,210,002",363,BX0601
Pioneer Supermarket,2865 Webester Avenue,,Bronx,10458,2013,1,,,,,,,,
Compare Foods,4800 Park Avenue,,Bronx,10458,2013,1,,,,,,,,
Tejada Castillo Food Corporation,1675 Boston Road,,Bronx,10458,2013,1,40.836404,-73.889409,203,15,"2,009,883","2,029,400,065",155,BX0303
Tony's Family,526 East 183rd Street,,Bronx,10458,2013,1,40.854678,-73.891945,206,15,"2,011,560","2,030,500,066",385,BX0603
Compare Foods,2477 Valentine Avenue,,Bronx,10458,2013,1,40.861705,-73.896135,205,15,"2,013,602","2,031,530,031","23,702",BX0503
20/20 Deli,1120 Southern Boulevard,,Bronx,10459,2014,2,40.827058,-73.891896,203,17,"2,006,049","2,027,450,001",125,BX0303
543 Deli,543 Southern Boulevard,,Bronx,10455,2014,2,40.812296,-73.90361,202,17,"2,005,080","2,026,830,001",83,BX0202
908 Garcia Fruit and Grocery,908 East 163rd Street,,Bronx,10459,2014,2,40.821006,-73.898026,202,17,"2,005,349","2,026,960,103",87,BX0202
Alan Deli Grocery,798 East 170th Street,,Bronx,10459,2014,2,40.833138,-73.89559,203,17,"2,010,216","2,029,630,012",153,BX0303
Amelia Grocery,954 Prospect Avenue,,Bronx,10459,2014,2,40.822611,-73.900391,202,17,"2,005,207","2,026,900,105","12,901",BX0202
Asociados Meat Market,1025 Westchester Avenue,,Bronx,10459,2014,2,40.824114,-73.893017,202,17,"2,095,487","2,027,260,070","12,701",BX0202
Associated Supermarket,1334 Louis Nine Boulevard,,Bronx,10459,2014,2,40.831535,-73.892337,203,17,"2,118,405","2,029,767,501",123,BX0303
Celia,966 Longwood Avenue,,Bronx,10459,2014,2,40.817424,-73.898101,202,17,"2,005,569","2,027,080,046",85,BX0202
Crystal Grocery,1090 Longfellow Avenue,,Bronx,10459,2014,2,40.826005,-73.887826,202,17,"2,006,286","2,027,570,066","12,102",BX0202
Deli Farm Meat and Grocery,850 Longwood Avenue,,Bronx,10459,2014,2,40.819376,-73.901378,202,17,"2,005,169","2,026,880,048",85,BX0202
El Patio Grocery,643 Wales Avenue/766 E 152 ST,,Bronx,10455,2014,2,,,,,,,,
Fair Farm,950 Westchester Avenue,,Bronx,10459,2014,2,40.822388,-73.896326,202,17,"2,114,693","2,027,037,501",87,BX0202
Genao Food Store,926 Intervale Avenue,,Bronx,10459,2014,2,40.819868,-73.896605,202,17,"2,005,450","2,027,030,001",87,BX0202
Home Street Deli,892-894 Home Street,,Bronx,10459,2014,2,40.828317,-73.89464,203,17,"2,005,698","2,027,190,019",125,BX0303
Ivoire African Market,1339 Prospect Avenue,,Bronx,10459,2014,2,40.829569,-73.897522,203,17,"2,010,310","2,029,680,008",151,BX0301
J&W Food Center,990 Leggett Avenue,,Bronx,10455,2014,2,40.814565,-73.899875,202,17,"2,005,101","2,026,840,076",83,BX0202
Los Hermanos Meat & Grocery,501B Jackson Avenue,,Bronx,10455,2014,2,40.812032,-73.909517,201,8,"2,003,696","2,025,570,078",35,BX0101
Luis & Angie Deli Grocery,976 Prospect Avenue,,Bronx,10459,2014,2,40.823362,-73.900079,202,17,"2,005,212","2,026,900,119","12,901",BX0202
Paulino Deli Grocery,798 Hunts Point Avenue,,Bronx,10474,2014,2,40.816509,-73.887878,202,17,"2,006,548","2,027,630,190","11,701",BX0201
REAL Supermarket,818 Westchester Ave. (795 Prospect Ave.),,Bronx,10459,2014,2,40.819173,-73.902571,201,17,"2,004,992","2,026,760,049",79,BX0102
Salgados Superette,1131 West Farms Road,,Bronx,10459,2014,2,40.82643,-73.890307,202,17,"2,006,048","2,027,440,063","12,701",BX0202
South Side Food,726 East 152nd Street,,Bronx,10455,2014,2,40.816005,-73.907976,201,8,"2,004,560","2,026,430,013",73,BX0102
Super Deli Grocery Store,740 East 149th Street,,Bronx,10455,2014,2,40.813082,-73.908389,201,8,"2,003,927","2,025,790,025",35,BX0101
Top Quality,1019 SIimpson Street,,Bronx,10459,2014,2,,,,,,,,
Torres Meat & Grocery,950 Longwood Avenue,,Bronx,10459,2014,2,40.817614,-73.898415,202,17,"2,005,568","2,027,080,040",85,BX0202
Union Foods,835 East152nd Street,,Bronx,10455,2014,2,40.815242,-73.904242,201,8,"2,004,919","2,026,750,001",79,BX0102
VR Vegetable N Grocery,928 Sothern Boulevard,,Bronx,10459,2014,2,,,,,,,,
3368 Cypress Deli & Grocery,3368 Fulton Street,,Brooklyn,11208,2015,2,40.683854,-73.871439,305,37,"3,092,807","3,041,470,039","1,184",BK0501
Apple Deli and Grill,1203 Sutter Avenue,,Brooklyn,11208,2015,2,40.672551,-73.873509,305,42,"3,095,362","3,042,480,001","1,196",BK0505
Bangla Supermarket,1211 Liberty Avenue,,Brooklyn,11208,2015,2,40.678988,-73.864858,305,37,"3,094,137","3,041,840,065","1,188",BK0505
Claribel Deli & Grocery,241 Ridgewood Avenue,,Brooklyn,11208,2015,2,40.683696,-73.87966,305,37,"3,086,802","3,039,160,030","1,174",BK0501
Dari's Grocery,224 Lincoln Avenue,,Brooklyn,11208,2015,2,40.684755,-73.869599,305,37,"3,092,433","3,041,330,054","1,184",BK0501
Decayagua Deli Grocery,290 Arlington Avenue,,Brooklyn,11208,2015,2,40.680961,-73.883826,305,37,"3,087,697","3,039,420,001","1,168",BK0501
Dumont Deli & Grocery,690 Linwood St.,,Brooklyn,11208,2015,2,40.668497,-73.88122,305,42,"3,090,191","3,040,660,039","1,164",BK0502
Four Star Supermarket,1075 Liberty Avenue,,Brooklyn,11208,2015,2,40.678354,-73.869546,305,37,"3,093,593","3,041,710,029","1,190",BK0505
Fulton Gourmet Deli and Grill,3336 Fulton St,,Brooklyn,11208,2015,2,40.683548,-73.872518,305,37,"3,092,740","3,041,460,037","1,178",BK0501
J and J Grocery,1055 Blake Avenue,,Brooklyn,11208,2015,2,40.670136,-73.879335,305,42,"3,089,840","3,040,530,001","1,164",BK0502
J R Grocery,944 Hegeman Avenue,,Brooklyn,11208,2015,2,40.665825,-73.877941,305,42,"3,097,609","3,043,390,010","1,116",BK0503
J.T. Deli Grocery,1145 Glenmore Avenue,,Brooklyn,11208,2015,2,40.677497,-73.866563,305,37,"3,094,418","3,042,030,001","1,188",BK0505
Los Chamona Deli Grocery,576 Ridgewood Avenue,,Brooklyn,11208,2015,2,40.686622,-73.867839,305,37,"3,092,546","3,041,360,023","1,184",BK0501
Luna Grocery,1082 Hegeman Avenue,,Brooklyn,11208,2015,2,40.667838,-73.873244,305,42,,,"1,116",BK0503
MACO Food Corp.,1018 Belmont Avenue,,Brooklyn,11208,2015,2,40.674146,-73.871458,305,42,"3,095,428","3,042,500,021","1,196",BK0505
Melendez Deli Grocery,145 Euclid Avenue,,Brooklyn,11208,2015,2,40.685225,-73.874621,305,37,"3,091,605","3,041,170,001","117,602",BK0501
Mike's Grocery Corp.,1268 Sutter Avenue,,Brooklyn,11208,2015,2,40.672872,-73.871161,305,42,"3,095,683","3,042,660,021","120,801",BK0505
My Neighborhood Grocery,385 Chestnut Street,,Brooklyn,11208,2015,2,40.677517,-73.873983,305,37,"3,094,276","3,041,930,012","1,196",BK0505
New Way Grocery,145 Ridgewood Avenue,,Brooklyn,11208,2015,2,40.68303,-73.883368,305,37,"3,336,135","3,039,110,059","117,202",BK0501
Reyes & G Mini Market,120 Autumn Avenue,,Brooklyn,11208,2015,2,40.687414,-73.871065,305,37,"3,091,802","3,041,200,057","118,201",BK0501
Sutter Grocery,978 Sutter Avenue,,Brooklyn,11208,2015,2,40.671237,-73.882578,305,42,"3,089,793","3,040,500,017","1,164",BK0502
1879 Deli Carter Corp,1879 Carter Avenue,,Bronx,10457,2015,3,40.847427,-73.901861,205,15,"2,009,377","2,028,920,039",231,BX0502
Anthony's Place Deli Grocery,306 East 178 Street,,Bronx,10457,2015,3,40.849999,-73.902497,205,15,"2,007,766","2,028,140,029",381,BX0502
Aurora Deli Grocery,150 East 174 STREET,,Bronx,10457,2015,3,40.844842,-73.909679,204,15,"2,007,873","2,028,240,051","22,703",BX0403
C & T Deli Grocery,2275 Washington Avenue,,Bronx,10457,2015,3,40.854929,-73.89342,206,15,"2,011,339","2,030,380,027",385,BX0603
Concourse Food Plaza,2096 Grand Concourse,,Bronx,10457,2015,3,40.854042,-73.902295,205,15,"2,013,681","2,031,560,102","23,502",BX0502
C-Town,229 East Tremont Avenue,,Bronx,10457,2015,3,40.848997,-73.904772,205,15,"2,007,719","2,028,090,051","23,502",BX0502
C-Town,309 East Burnside Avenue,,Bronx,10457,2015,3,40.850588,-73.901133,205,15,"2,013,524","2,031,490,068",381,BX0502
Deli Grocery,2236 Grand Concourse,,Bronx,10457,2015,3,40.856256,-73.90064,205,15,"2,013,718","2,031,580,001","38,301",BX0503
El Abanico Deli Grocery Corp.,214 East 180 Street,,Bronx,10457,2015,3,40.853232,-73.901971,205,15,"2,013,632","2,031,560,018","23,502",BX0502
Fresh Food Deli Grocery,2179 Washington Avenue,,Bronx,10457,2015,3,40.853505,-73.89442,206,15,"2,011,324","2,030,370,077",395,BX0602
J.J.N. Corp Deli Grocery,1512 Washington Avenue,,Bronx,10457,2015,3,40.837956,-73.90315,203,16,"2,009,543","2,029,120,001",169,BX0302
Jade Food Center,3822 3 AVENUE,,Bronx,10457,2015,3,40.837875,-73.901412,203,16,"2,009,644","2,029,280,012",169,BX0302
Los Primos Grocery,1965 Webster Avenue,,Bronx,10457,2015,3,40.849462,-73.899949,205,15,"2,013,301","2,031,420,094",379,BX0502
Los Primos Grocery,1798 Crotona Avenue,,Bronx,10457,2015,3,40.842792,-73.893526,206,15,"2,009,916","2,029,480,001","36,902",BX0602
Mills Grocery,1570 Bathgate Avenue,,Bronx,10457,2015,3,40.838762,-73.901563,203,15,"2,009,581","2,029,190,001",167,BX0302
Naranjal Grocery,200 East Tremont Avenue,,Bronx,10457,2015,3,40.84911,-73.905415,205,15,"2,007,593","2,028,040,005","23,302",BX0502
Omale New York Grocery,2172 Crotona Avenue,,Bronx,10457,2015,3,40.850259,-73.88648,206,15,"2,012,768","2,030,980,025",371,BX0602
Vasquez Deli Grocery,1959 Clinton Avenue,,Bronx,10457,2015,3,40.845028,-73.890002,206,15,"2,012,627","2,030,920,044",371,BX0602
Webster Food Corp,2031 Webster Avenue,,Bronx,10457,2015,3,40.85091,-73.899032,205,15,"2,013,300","2,031,420,074",379,BX0502
Almontaser Enterprises LLC,2792 Fulton Street,,Brooklyn,11207,2016,3,40.678053,-73.891478,305,37,"3,397,940","3,039,470,017","1,198",BK0502
Habibi Gourmet Deli,2761 Fulton Street,,Brooklyn,11207,2016,3,40.677879,-73.892772,305,37,"3,083,215","3,036,640,045","1,146",BK0501
J & K Grocery,2737 Fulton Street,,Brooklyn,11207,2016,3,40.677742,-73.893678,305,37,"3,083,171","3,036,630,042","1,146",BK0501
La Vega Grocery,2772 Fulton Street,,Brooklyn,11207,2016,3,40.677936,-73.892268,305,37,"3,087,748","3,039,460,014","1,198",BK0502
Marien Groceries Corp.,99 Jamaica Avenue,,Brooklyn,11207,2016,3,40.678656,-73.896416,305,37,"3,080,596","3,034,860,007","114,201",BK0501
One Apple Grocery Store,609 Wilson Avenue,,Brooklyn,11207,2016,3,40.69016,-73.907173,304,37,"3,079,530","3,034,300,008",409,BK0402
Plaza Meat Market,100 Cooper Street,,Brooklyn,11207,2016,3,40.68619,-73.908898,304,37,"3,079,921","3,034,390,035",403,BK0402
Shorty Meat Farm,2949 Fulton Street,,Brooklyn,11207,2016,3,40.679552,-73.885909,305,37,"3,339,498","3,039,390,027","117,201",BK0501
Sunny Supermarket,200 Jamaica Avenue,,Brooklyn,11207,2016,3,40.68039,-73.892682,305,37,"3,342,632","3,039,170,007","1,146",BK0501
VLT Mini Market Inc.,2837 Fulton Street,,Brooklyn,11207,2016,3,40.678348,-73.889747,305,37,"3,087,552","3,039,350,052","1,146",BK0501
Comidas Dominicanas Capellan Deli,1626 Park Avenue,,New York,10029,2015,3,40.798917,-73.943533,111,8,"1,051,645","1,016,210,035",184,MN1102
Deli Superette,1858 Lexington Avenue,,New York,10029,2015,3,40.798118,-73.942006,111,8,"1,052,235","1,016,430,015",182,MN1102
Puchito Grocery,2122 2nd Avenue,,New York,10029,2015,3,40.792642,-73.940956,111,8,"1,052,825","1,016,810,001",180,MN1102
Annabelle Deli,2121 2nd Avenue,,New York,10029,2015,3,40.792729,-73.940913,111,8,"1,052,437","1,016,590,021",180,MN1102
Juice Bar Deli,308 East 116th Street,,New York,10029,2015,3,40.796768,-73.937236,111,8,"1,052,929","1,016,870,046",188,MN1102
AA Deli and Grocery,21012 2nd Avenue,,New York,10029,2015,3,,,,,,,,
Mini Market Corps,1690 Lexington Avenue,,New York,10029,2015,3,40.79235,-73.946215,111,8,"1,052,019","1,016,340,015",172,MN1101
Madison Deli and Grocery,1550 Madison Avenue,,New York,10029,2015,3,40.792753,-73.950144,111,8,"1,051,507","1,016,100,058",168,MN1101
El Tepeyac Grocery,1621 Lexington Avenue,,New York,10029,2015,3,40.789922,-73.947961,111,8,"1,051,884","1,016,300,021",166,MN1101
Mi Mexico Mini Market,172 East 104th Street,,New York,10029,2015,3,40.790605,-73.946469,111,8,"1,051,933","1,016,310,045",166,MN1101
East Side Gourmet Deli,1863 3rd Avenue,,New York,10029,2015,3,40.789515,-73.946163,111,8,,,164,MN1101
2015 Food Deli,2015 1st Avenue,,New York,10029,2015,3,40.788176,-73.941133,111,8,"1,052,687","1,016,750,029",164,MN1101
JJ Food  Market,153 East 99th Street,,New York,10029,2015,3,40.78771,-73.949288,111,8,"1,051,758","1,016,270,023",166,MN1101
Deli Mini Mart,339 East 115th Street,,New York,10029,2015,3,40.79565,-73.936703,111,8,"1,052,907","1,016,870,021",188,MN1102
Cherry Deli Gourmet,1575 Lexington Avenue,,New York,10029,2015,3,40.78874,-73.948825,111,8,"1,051,813","1,016,280,050",166,MN1101
Cherry Valley Market,309 East 115th Street,,New York,10029,2015,3,40.796167,-73.937941,111,8,"1,052,901","1,016,870,005",188,MN1102
Super Fi Emporium,1635 Lexington Avenue,,New York,10029,2015,3,40.790501,-73.947538,111,8,"1,089,312","1,016,317,501",166,MN1101
NYC Fresh Market,1656 Madison Avenue,,New York,10029,2015,3,40.796358,-73.947512,111,9,"1,085,254","1,016,160,001","17,402",MN1101
Fine Fare,1718 Madison Avenue,,New York,10029,2015,3,40.798265,-73.94612,111,8,"1,080,504","1,016,180,001",184,MN1102
City Fresh Market,235 East 106th Street,,New York,10029,2015,3,40.791026,-73.943359,111,8,"1,084,323","1,016,560,001",170,MN1101
1408 Deli & Grocery Corp.,1408 Fulton Avenue,,Bronx,10456,2016,4,40.834741,-73.901771,203,15,"2,009,720","2,029,320,015",149,BX0301
2009 Melissa Deli Corp.,621 East 170th Street,,Bronx,10456,2016,4,40.834199,-73.900167,203,15,"2,009,800","2,029,360,001",149,BX0301
99 Cent Deli Square,3754 3rd AVE,,Bronx,10456,2016,4,40.836328,-73.902603,203,16,"2,009,632","2,029,270,007",169,BX0302
Associated Supermarket,724 East 161st Street,,Bronx,10456,2016,4,40.821432,-73.905183,201,17,"2,098,384","2,026,470,045",77,BX0102
Baraka African Market,1345 Webster Avenue,,Bronx,10456,2016,4,40.835103,-73.908051,204,16,"2,009,309","2,028,870,165","17,702",BX0403
College Ave.  Deli and Market Inc.,288 East 168th Street,,Bronx,10456,2016,4,40.833333,-73.912802,204,16,"2,002,293","2,024,350,015",175,BX0401
First Food Market,3706 3rd Avenue,,Bronx,10456,2016,4,40.835694,-73.903052,203,16,"2,009,624","2,029,260,002","14,702",BX0302
Food Bazaar,535 East 170th Street,,Bronx,10456,2016,4,40.834931,-73.903144,203,16,"2,009,624","2,029,260,002","14,702",BX0302
Key Food Supermarket.,340 Pennsylvania Avenue,,Bronx,10456,2016,4,,,,,,,,
La Hermadad Supermarket Inc.,193 McClellan Street,,Bronx,10456,2016,4,40.832698,-73.917847,204,16,"2,002,752","2,024,560,181","18,102",BX0401
M&G Food Corp.,391 East 167th Street,,Bronx,10456,2016,4,40.830862,-73.910897,204,16,"2,002,074","2,024,260,048","17,701",BX0401
Soumandji Meat Fish Market,381 East 169th Street,,Bronx,10456,2016,4,40.834317,-73.909953,204,16,"2,007,151","2,027,820,147","17,702",BX0403
Z&F Deli Grocery,3321 Third Avenue,,Bronx,10456,2016,4,40.826215,-73.907857,203,16,"2,116,712","2,023,697,502","18,501",BX0301
Angelic Grocery and Deli Corp,305 Jerome St,,Brooklyn,11207,2016,4,40.67425,-73.886974,305,42,"3,088,849","3,039,980,011","1,150",BK0502
Dama Food Market,2303 Pitkin Avenue,,Brooklyn,11207,2016,4,40.673169,-73.887315,305,42,"3,088,841","3,039,970,034","1,150",BK0502
Danilo's Corp Deli Grocery,731 Schenck Avenue,,Brooklyn,11207,2016,4,40.662374,-73.884828,305,42,"3,097,519","3,043,310,059","1,104",BK0503
George Deli & Grocery,710 Georgia Avenue,,Brooklyn,11207,2016,4,40.659602,-73.893566,305,42,"3,402,540","3,042,960,039","1,130",BK0503
JLC Deli Grocery,653 Liberty Avenue,,Brooklyn,11207,2016,4,40.676038,-73.885551,305,37,"3,088,356","3,039,680,042","1,170",BK0501
Melissa Meat Market,772 Sutter Avenue,,Brooklyn,11207,2016,4,40.670122,-73.890085,305,42,"3,089,672","3,040,410,027","1,160",BK0502
Quezada Deli Grocery,570 Van Siclen Avenue,,Brooklyn,11207,2016,4,40.66582,-73.888567,305,42,"3,090,357","3,040,730,052","1,124",BK0503
Sajoma Deli Grocery,772 Miller Avenue,,Brooklyn,11207,2016,4,40.661971,-73.887788,305,42,"3,096,720","3,043,030,037","1,122",BK0503
"VA Grocery & Deli Corp  
(Brother's Mini Market)",207 Hull Street,,Brooklyn,11207,2016,4,40.679876,-73.908009,316,37,"3,041,784","3,015,350,057",369,BK1601
Wild Olive Market,10 East 125th Street,,New York,10035,2016,4,40.806215,-73.941807,111,9,"1,085,291","1,017,490,066",198,MN1102
Juan Calito Meat Corp./City Fresh,2212 3rd Avenue,,New York,10035,2016,4,40.80083,-73.937926,111,8,"1,087,272","1,017,697,501",196,MN1102
Prince Deli Grocery,1461 5th Avenue,,New York,10035,2016,4,40.80211,-73.945394,111,9,"1,053,946","1,017,450,001",184,MN1102
TSM 2ND Ave Gourmet Deli,248 East 119th street,,New York,10035,2016,4,40.799408,-73.937479,111,8,"1,054,534","1,017,830,028",188,MN1102
Fine Fare Supermarket,2330 1st Avenue,,New York,10035,2016,4,40.798278,-73.933731,111,8,"1,054,882","1,018,070,048",192,MN1102
Viva Deli,2330 1st Avenue,,New York,10035,2016,4,40.798278,-73.933731,111,8,"1,054,882","1,018,070,048",192,MN1102
Abdur Sami,2262 2nd Avenue,,New York,10035,2016,4,40.797155,-73.937651,111,8,"1,052,946","1,016,880,001",188,MN1102
Mis Hijos,2401 2nd Avenue,,New York,10035,2016,4,40.801484,-73.934425,111,8,"1,054,643","1,017,880,022",194,MN1102
Oasis Gourmet Deli,1966 Madison Avenue,,New York,10035,2016,4,40.806313,-73.94024,111,9,"1,054,058","1,017,500,056",198,MN1102
Tasty Pick Deli & Grocery,1878 Lexington Avenue,,New York,10035,2016,4,40.799256,-73.941171,111,8,"1,052,330","1,016,440,156",182,MN1102
K&O Deli Grocery,2288 2nd Avenue,,New York,10035,2016,4,40.797964,-73.937061,111,8,"1,052,985","1,016,890,004",188,MN1102
Finest Food Corp,315 Pleasant Avenue,,New York,10035,2016,4,40.795599,-73.932769,111,8,"1,053,088","1,017,100,029",178,MN1102
2001 GOURMET DELI,2001 CLINTON AVE,,Bronx,10457,2017,5,40.846375,-73.888858,206,15,"2,012,682","2,030,950,057",371,BX0602
347 CHABELY DELI GROCERY,347 E 173RD ST,,Bronx,10457,2017,5,40.84345,-73.905202,204,15,"2,007,331","2,027,900,057","22,902",BX0403
ALFONSOS DELI & GROCERY,2236 GRAND CONCOURSE,,Bronx,10457,2017,5,40.856256,-73.90064,205,15,"2,013,718","2,031,580,001","38,301",BX0503
AMIGOS GROCERY,551 EAST 172ND ST,,Bronx,10457,2017,5,40.839504,-73.899545,203,15,"2,009,658","2,029,290,082",167,BX0302
FELINO GROCERY,1836 ANTHONY AVE,,Bronx,10457,2017,5,40.847412,-73.903704,205,15,"2,007,579","2,028,030,001","23,302",BX0502
FELOMAR GROCERY STORE,154 E 175TH ST,,Bronx,10457,2017,5,40.846798,-73.908111,205,14,"2,007,424","2,027,960,028","22,901",BX0502
HABIBI DELI,2070 CLINTON AVE,,Bronx,10457,2017,5,40.847236,-73.888101,206,15,"2,012,652","2,030,940,014",371,BX0602
LOS PALMARITOS DELI GROCERY,2080 VALENTINE AVE,,Bronx,10457,2017,5,40.852753,-73.899897,205,15,"2,013,341","2,031,440,001",379,BX0502
PAULINO GROCERY,4378 3RD AVE,,Bronx,10457,2017,5,40.850821,-73.893958,206,15,"2,011,850","2,030,620,001","37,504",BX0602
SAER & JAMAL MARKET 2,563 E TREMONT AVE,,Bronx,10457,2017,5,40.846509,-73.894814,206,15,"2,011,828","2,030,600,050","37,504",BX0602
CONCOURSE FOOD PLAZA,2096 GRAND CONCOURSE,,Bronx,10457,2017,5,40.854042,-73.902295,205,15,"2,013,681","2,031,560,102","23,502",BX0502
305 GROCERY DELI,305 EAST 181ST ST,,Bronx,10457,2017,5,40.854045,-73.899172,205,15,"2,013,375","2,031,440,045",379,BX0502
551 REY FOOD,551 E 178TH ST,,Bronx,10457,2017,5,40.847528,-73.894599,206,15,"2,011,842","2,030,610,036","37,504",BX0602
ALANTE ALANTE DELI GROCERY,207 MT HOPE PL,,Bronx,10457,2017,5,40.848385,-73.905951,205,15,"2,007,592","2,028,040,001","23,302",BX0502
BANESA DELI GROCERY 2,2007 ANTHONY AVE,,Bronx,10457,2017,5,40.851468,-73.902885,205,15,"2,007,758","2,028,130,001","23,502",BX0502
BODEGA BUILT,601 EAST 180TH STREET,,Bronx,10457,2017,5,40.849394,-73.891375,206,15,"2,012,024","2,030,700,001",373,BX0602
CHICKEN DELI GROCERY,555 EAST 180TH ST,,Bronx,10457,2017,5,40.850351,-73.893326,206,15,"2,011,853","2,030,620,015","37,504",BX0602
JJN CORP,1512 WASHINGTON AVE,,Bronx,10457,2017,5,40.837956,-73.90315,203,16,"2,009,543","2,029,120,001",169,BX0302
LOS PRIMOS DELI GROCERY,1798 CROTONA AVE,,Bronx,10457,2017,5,40.842792,-73.893526,206,15,"2,009,916","2,029,480,001","36,902",BX0602
ZAEL DELI & GROCERY,2160 TIEBOUT AVE,,Bronx,10457,2017,5,40.854091,-73.898554,205,15,"2,013,317","2,031,430,130","38,303",BX0503
FINE FARE SUPERMARKET,708 E TREMONT AVE,,Bronx,10457,2017,5,40.845227,-73.890771,206,15,"2,009,975","2,029,500,054","36,901",BX0602
C & T DELI GROCERY STORE,2275 WASHINGTON AVE,,Bronx,10457,2017,5,40.854929,-73.89342,206,15,"2,011,339","2,030,380,027",385,BX0603
C-TOWN,309 E BURNSIDE AVE,,Bronx,10457,2017,5,40.850588,-73.901133,205,15,"2,013,524","2,031,490,068",381,BX0502
LOS PRIMOS GROCERY,1965 WEBSTER AVE,,Bronx,10457,2017,5,40.849462,-73.899949,205,15,"2,013,301","2,031,420,094",379,BX0502
269 MINI MARKET & DELI,269 E BURNSIDE AVE,,Bronx,10457,2017,5,40.851333,-73.902133,205,15,"2,013,676","2,031,567,501",381,BX0502
JR 2121 DELI GROCERY,2121 BELMONT AVE,,Bronx,10457,2017,5,40.849172,-73.889446,206,15,"2,012,356","2,030,810,013",373,BX0602
BBB DELI GROCERY,214B E 180TH ST,,Bronx,10457,2017,5,40.853232,-73.901971,205,15,"2,013,632","2,031,560,018","23,502",BX0502
DIAZ DELI GROCERY,306 E 178TH ST,,Bronx,10457,2017,5,40.849999,-73.902497,205,15,"2,007,766","2,028,140,029",381,BX0502
LA ANTILLANA MEAT WAREHOUSE,245 E TREMONT AVE,,Bronx,10457,2017,5,40.848922,-73.904407,205,15,"2,007,717","2,028,090,045","23,502",BX0502
JADE FOOD CENTER,3822 3RD AVE,,Bronx,10457,2017,5,40.837875,-73.901412,203,16,"2,009,644","2,029,280,012",169,BX0302
OJ DELI GROCERY,230 E 174TH ST,,Bronx,10457,2017,5,40.84472,-73.907427,204,15,"2,007,368","2,027,920,037","22,902",BX0403
LA BODEGUITA DE ROSAURA,160 E 174TH ST,,Bronx,10457,2017,5,40.844817,-73.909238,204,15,"2,007,398","2,027,940,042","22,902",BX0403
EXPRESS MARKET,469 E TREMONT AVE,,Bronx,10457,2017,5,40.847075,-73.898247,206,15,"2,011,246","2,030,340,046",395,BX0602
3 Sisters Deli Grocery,269 Dumont Ave,,Brooklyn,11212,2017,5,40.664065,-73.909566,316,41,"3,081,792","3,035,600,048",924,BK1602
702 Livonia Ave Deli,702 Rockaway Ave,,Brooklyn,11212,2017,5,40.662769,-73.908984,316,41,"3,081,941","3,035,750,001",924,BK1602
Chester Food Market,241 Blake Ave,,Brooklyn,11212,2017,5,40.665518,-73.910487,316,41,"3,081,443","3,035,430,001",924,BK1602
MJT Grocery Store,666 Rockaway Ave,,Brooklyn,11212,2017,5,40.663255,-73.909106,316,41,"3,326,506","3,035,750,011",924,BK1602
Blessings Food Corp.,578 Rockaway Ave,,Brooklyn,11212,2017,5,40.665951,-73.909795,316,41,"3,326,651","3,035,430,043",924,BK1602
Rockaway Deli Food Corp.,674 Rockaway Ave,,Brooklyn,11212,2017,5,40.663148,-73.909077,316,41,"3,326,506","3,035,750,011",924,BK1602
El Especial Deli & Gril,774 Rockaway Ave,,Brooklyn,11212,2017,5,40.66071,-73.908457,316,41,"3,393,959","3,036,027,501",916,BK1602
Friendly Food & Grocery,784 Saratoga Ave,,Brooklyn,11212,2017,5,40.661305,-73.91542,316,41,"3,326,659","3,035,820,032",894,BK1602
Sanaa Express Grocery,245 Riverdale Ave,,Brooklyn,11212,2017,5,40.661129,-73.907812,316,41,"3,082,151","3,035,900,001",918,BK1602
Cherry Valley,381 Mother Gaston Blvd,,Brooklyn,11212,2017,5,40.669745,-73.906859,316,41,"3,083,889","3,037,260,008",908,BK1602
Jamao Grocery,174 Blake Ave,,Brooklyn,11212,2017,5,40.665097,-73.913206,316,41,"3,081,748","3,035,570,025",898,BK1602
Los Primos Grocery,57 Sutter Ave,,Brooklyn,11212,2017,5,40.665613,-73.920587,316,41,"3,080,851","3,035,100,076",900,BK1602
39 Lott Grocery,39 Lott Ave,,Brooklyn,11212,2017,5,40.657233,-73.912564,316,41,"3,082,435","3,036,090,001",896,BK1602
51 Deli & Grocery NYC,51 Hegeman Ave,,Brooklyn,11212,2017,5,40.655828,-73.910331,316,42,"3,082,720","3,036,220,001",896,BK1602
77 Hegeman Mini Market,77 Hegeman Ave,,Brooklyn,11212,2017,5,40.655981,-73.909322,316,42,"3,082,734","3,036,230,001",916,BK1602
Glen Deli & Grocery,55 Hegeman Ave,,Brooklyn,11212,2017,5,40.655883,-73.909981,316,42,"3,082,735","3,036,230,008",916,BK1602
Associated supermarket,103 Hegeman Ave,,Brooklyn,11212,2017,5,40.656153,-73.908172,316,42,"3,082,814","3,036,250,004",916,BK1602
Hidayat Deli Grocery,1111 Rutland Rd,,Brooklyn,11212,2017,5,40.664805,-73.923119,317,41,"3,099,558","3,046,000,038",892,BK1704
T&L Deli & Grocery,1067 Rutland Rd,,Brooklyn,11212,2017,5,40.663944,-73.924439,317,41,"3,099,544","3,045,990,043",892,BK1704
Bravo Supermarket,80 E 93Rd St,,Brooklyn,11212,2017,5,40.662455,-73.926964,317,41,"3,346,868","3,045,950,215",882,BK1704
Associated Supermarket,190 E 98th St,,Brooklyn,11212,2017,5,40.66264,-73.92032,317,41,"3,100,736","3,046,330,013",892,BK1704
Boston MiniMarket,9424 Kings Highway,,Brooklyn,11212,2017,5,40.658474,-73.920581,317,41,"3,101,192","3,046,490,040",886,BK1704
Clarkson Food,1125 Clarkson Ave,,Brooklyn,11212,2017,5,40.660467,-73.92113,317,41,"3,100,676","3,046,310,038",884,BK1704
New Way Supermarket,1167 Lenox Rd,,Brooklyn,11212,2017,5,40.659951,-73.917592,317,41,"3,101,284","3,046,520,039",890,BK1704
Star Two Deli,994 Winthrop St,,Brooklyn,11212,2017,5,40.659738,-73.926577,317,41,"3,100,381","3,046,260,006",866,BK1703
Ameer Food Market,9527 Church Ave,,Brooklyn,11212,2017,5,40.655331,-73.916044,317,41,"3,102,640","3,046,920,044",890,BK1704
El Flaco Food,1093 Linden Blvd,,Brooklyn,11212,2017,5,40.654327,-73.917775,317,41,"3,102,539","3,046,900,010",888,BK1704
La Linda Deli Grocery,1157 Willmohr St,,Brooklyn,11212,2017,5,40.658163,-73.915979,317,41,"3,101,976","3,046,720,034",890,BK1704
9323 Linden Deli Food,9323 Church Ave,,Brooklyn,11212,2017,5,40.654538,-73.917263,317,41,"3,102,536","3,046,900,001",888,BK1704
420 Royal Deli,420B Mother Gaston Blvd,,Brooklyn,11212,2017,5,40.668668,-73.906604,316,41,,,906,BK1602
Leonardo Deli Grocery,441 Mother Gaston Blvd,,Brooklyn,11212,2017,5,40.668248,-73.906479,316,41,"3,084,005","3,037,430,007",908,BK1602
C-Town,29 Belmont Ave,,Brooklyn,11212,2017,5,40.668607,-73.909221,316,41,"3,081,095","3,035,230,037",906,BK1602
Moreno Mini Market,113 Belmont Ave,,Brooklyn,11212,2017,5,40.669077,-73.906038,316,41,"3,083,894","3,037,260,034",908,BK1602
Bridge Deli & Grocery,1861 Pitkin Ave,,Brooklyn,11212,2017,5,40.670686,-73.904064,316,37,"3,083,747","3,037,120,001",908,BK1602
Eye Deli & Grocery,1540 E New York Ave,,Brooklyn,11212,2017,5,40.672108,-73.911243,316,41,"3,329,485","3,034,890,120",906,BK1602
Family Express Deli & Grocery,112 Watkins St,,Brooklyn,11212,2017,5,40.670289,-73.90803,316,41,"3,338,511","3,034,890,250",906,BK1602
Golden Deli,1569 E New York Ave,,Brooklyn,11212,2017,5,40.672599,-73.910121,316,41,"3,039,273","3,014,610,027",363,BK1601
New Friends Gourmet Deli,1788 Pitkin Ave,,Brooklyn,11212,2017,5,40.670222,-73.907074,316,41,"3,397,503","3,035,250,017",906,BK1602
Yoha Mini Market,78 Thatford Ave,,Brooklyn,11212,2017,5,40.670019,-73.909865,316,41,"3,326,574","3,034,890,228",906,BK1602
Pitikin Ave Deli & Grocery,1801 Pitkin Ave,,Brooklyn,11212,2017,5,40.670326,-73.906487,316,37,"3,083,739","3,037,090,032",908,BK1602
Ideal Food Basket,1488 Pitkin Ave,,Brooklyn,11212,2017,5,40.668494,-73.91872,316,41,"3,080,901","3,035,130,033",900,BK1602
Caba Deli Grocery,1419 E New York Ave,,Brooklyn,11212,2017,5,40.67024,-73.915567,316,41,"3,039,487","3,014,720,025",361,BK1601
El Cibao,38 Herzl St,,Brooklyn,11212,2017,5,40.669062,-73.915457,316,41,"3,326,460","3,034,940,028",902,BK1602
Shop Fair Supermarket,256 Livonia Ave,,Brooklyn,11212,2017,5,40.662618,-73.908433,316,41,"3,082,153","3,035,900,016",918,BK1602
Food Bazaar,417 Junius St,,Brooklyn,11212,2017,5,40.664415,-73.901629,316,42,"3,084,597","3,037,980,025",910,BK1602
Pioneer Supermarket,455 Sutter Ave,,Brooklyn,11212,2017,5,40.66833,-73.90229,316,37,"3,394,366","3,037,470,001",908,BK1602
Airon Food Market,44 New Lots Ave,,Brooklyn,11212,2017,5,40.657215,-73.903452,316,42,"3,085,891","3,038,600,001",920,BK1602
Giselle Mini Market,1697 E New York Ave,,Brooklyn,11212,2017,5,40.674615,-73.905514,316,37,"3,038,833","3,014,440,041","36,502",BK1601
Powell Supermarket,323 Powell St,,Brooklyn,11212,2017,5,40.666434,-73.90314,316,42,"3,084,420","3,037,800,020",910,BK1602
Green Village Meat Farm,229 Tapscott St,,Brooklyn,11212,2017,5,40.662211,-73.919589,316,41,"3,394,445","3,035,650,015",892,BK1704
Anabelle Deli Grocery,2121 2nd Ave,,New York,10029,2017,5,40.792729,-73.940913,111,8,"1,052,437","1,016,590,021",180,MN1102
Cherry Gourmet Deli,1575 Lexington Ave,,New York,10029,2017,5,40.78874,-73.948825,111,8,"1,051,813","1,016,280,050",166,MN1101
Cherry Valley Supermarket,1968 2nd Ave,,New York,10029,2017,5,40.787585,-73.944655,111,8,"1,081,358","1,016,730,001",164,MN1101
Dave’s Gourmet,1944 1st Ave,,New York,10029,2017,5,40.786099,-73.942612,111,8,"1,083,932","1,016,940,007",162,MN1101
Family 1st Deli,2105 1st Ave,,New York,10029,2017,5,40.791007,-73.939069,111,8,"1,052,807","1,016,800,023",170,MN1101
Gold Deli,126 E 103rd St.,,New York,10029,2017,5,40.790581,-73.948343,111,8,"1,051,901","1,016,300,061",166,MN1101
L&O Deli Grocery,1618 Madison Ave,,New York,10029,2017,5,40.795008,-73.948495,111,9,"1,051,581","1,016,140,014","17,401",MN1101
La Constenita Grocery,2175 2nd Ave,,New York,10029,2017,5,40.794249,-73.939799,111,8,"1,052,504","1,016,610,027",180,MN1102
Luna Food Market,2121 1st Ave,,New York,10029,2017,5,40.791658,-73.938591,111,8,"1,052,837","1,016,810,023",180,MN1102
Lucky Corner Deli & Pro,2137 2nd Ave,,New York,10029,2017,5,40.793056,-73.94067,111,8,"1,052,444","1,016,590,028",180,MN1102
Mr. Moe’s Deli,2001 3rd Ave,,New York,10029,2017,5,40.793985,-73.942905,111,8,"1,052,445","1,016,590,045",180,MN1102
.NYC Fresh Market,1660 Madison Ave,,New York,10029,2017,5,40.796457,-73.947439,111,9,"1,085,254","1,016,160,001","17,402",MN1101
Puchito Grocery,2122 2nd Ave,,New York,10029,2017,5,40.792642,-73.940956,111,8,"1,052,825","1,016,810,001",180,MN1102
Raspberry Deli,2127 2nd Ave,,New York,10029,2017,5,40.792853,-73.940822,111,8,"1,052,439","1,016,590,023",180,MN1102
East Harlem Grocery,85 E 110th St.,,New York,10029,2017,5,40.795771,-73.946725,111,8,"1,051,617","1,016,160,035","17,402",MN1101
Sun & Moon Deli,142 E 112th St.,,New York,10029,2017,5,40.796145,-73.943676,111,8,"1,087,212","1,016,390,057",172,MN1101
Garden Gourmet,2019 1st Ave,,New York,10029,2017,5,40.788417,-73.94096,111,8,"1,087,780","1,016,767,504",170,MN1101
2037 Meat & Grocery,2037 2nd Ave,,New York,10029,2017,5,40.789717,-73.943111,111,8,"1,052,391","1,016,540,027",170,MN1101
Oxford 2 Deli Grocery,2024 2nd Ave,,New York,10029,2017,5,40.789379,-73.943332,111,8,"1,052,702","1,016,760,001",170,MN1101
Fine Fare Supermarket,1891 3rd Ave,,New York,10029,2017,5,40.790544,-73.94541100000001,111,8,"1,052,399","1,016,540,045",170,MN1101
Asunan Inc.,1665 Lexington Ave,,New York,10029,2017,5,40.79131,-73.946949,111,8,"1,051,980","1,016,320,053",166,MN1101
1705 Deli Grocery,1705 Lexington Ave,,New York,10029,2017,5,40.792765,-73.945886,111,8,"1,052,050","1,016,340,049",172,MN1101
Lex & 103rd Inc.,1629 Lexington Ave,,New York,10029,2017,5,40.790216,-73.947744,111,8,"1,051,897","1,016,300,053",166,MN1101
Ranch Market,1635 Lexington Ave,,New York,10029,2017,5,40.790501,-73.947538,111,8,"1,089,312","1,016,317,501",166,MN1101
Uptown Supermarket,1588 Madison Ave,,New York,10029,2017,5,40.793982,-73.949243,111,9,"1,051,514","1,016,120,001","17,401",MN1101
El Tepeyac,1621 Lexington Ave,,New York,10029,2017,5,40.789922,-73.947961,111,8,"1,051,884","1,016,300,021",166,MN1101
Super Fi Emporium,1635 Lexington Ave,,New York,10029,2017,5,40.790501,-73.947538,111,8,"1,089,312","1,016,317,501",166,MN1101
Manhattan Haat Baazar,165 East 106th St.,,New York,10029,2017,5,40.791966,-73.945594,111,8,"1,052,032","1,016,340,031",172,MN1101
Cappellan Deli Grocery,1626 Park Ave,,New York,10029,2017,5,40.798917,-73.943533,111,8,"1,051,645","1,016,210,035",184,MN1102
Third Avenue Gourmet,2105 Third Ave,,New York,10029,2017,5,40.797447,-73.94037,111,8,"1,052,515","1,016,650,001",188,MN1102
Cherry Valley Supermarket,309 East 115th St.,,New York,10029,2017,5,40.796167,-73.937941,111,8,"1,052,901","1,016,870,005",188,MN1102
El Barrio Superette,1858 Lexington Ave,,New York,10029,2017,5,40.798118,-73.942006,111,8,"1,052,235","1,016,430,015",182,MN1102
New King Deli Grocery Corp.,23 East 115th St.,,New York,10029,2017,5,40.799415,-73.945645,111,8,"1,074,184","1,016,210,013",184,MN1102
Little Mexico Meat Grocery,2119 Third Ave,,New York,10029,2017,5,40.797752,-73.94015,111,8,"1,052,552","1,016,650,050",188,MN1102
Paniagua Deli Grocery,203 East 115th St.,,New York,10029,2017,5,40.797233,-73.940432,111,8,"1,052,555","1,016,650,104",188,MN1102
JJ Food Market,153 East 99th St.,,New York,10029,2017,5,40.78771,-73.949288,111,8,"1,051,758","1,016,270,023",166,MN1101
Family Deli & Grill,2266 1st Avenue,,New York,10035,2018,6,40.796341,-73.935152,111,8,"1,053,073","1,017,100,004",178,MN1102
Taino Sunrise Corp,2254 Third Avenue,,New York,10035,2018,6,40.802142,-73.936967,111,8,"1,054,416","1,017,710,036",196,MN1102
Natural Food Deli Inc.,2181 3rd Avenue,,New York,10035,2018,6,40.79979,-73.938645,111,8,"1,054,544","1,017,830,045",188,MN1102
Harlem Health Food Gourment,2239 1st Avenue,,New York,10035,2018,6,40.795419,-73.935847,111,8,"1,052,909","1,016,870,023",188,MN1102
1663 Park Avenue Mini Market Corp,1663 Park Avenue,,New York,10035,2018,6,40.800201,-73.942557,111,8,"1,052,332","1,016,450,001",182,MN1102
NYC Grill,1938 Madison Avenue,,New York,10035,2018,6,40.805328,-73.940974,111,9,"1,054,005","1,017,490,016",198,MN1102
Prince Deli Grocery Corp,1461 5th Avenue,,New York,10035,2018,6,40.80211,-73.945394,111,9,"1,053,946","1,017,450,001",184,MN1102
Grab & Go Food Inc.,2096 5th Avenue,,New York,10035,2018,6,40.808827,-73.940512,110,9,"1,053,698","1,017,260,039",208,MN1002
Wild Olive Inc.,10 East 125th Street,,New York,10035,2018,6,40.806215,-73.941807,111,9,"1,085,291","1,017,490,066",198,MN1102
1886 Park Avenue Food Corp,1886 Park Avenue,,New York,10035,2018,6,40.80722,-73.937468,111,9,"1,054,188","1,017,530,035",206,MN1102
Exquisite Grill Deli,521 Lenox Avenue,,New York,10037,2018,6,40.814873,-73.940311,110,9,"1,058,330","1,019,210,029",228,MN1002
Key Food Supermarket,592 Lenox Avenue,,New York,10037,2018,6,40.817088,-73.938669,110,9,"1,053,937","1,017,370,011",214,MN1002
551 Deli & Grocery,551 Lenox Avenue,,New York,10037,2018,6,40.815935,-73.939534,110,9,"1,060,007","1,020,060,036",228,MN1002
AJ Food Center Inc.,1 West 131 Street,,New York,10037,2018,6,40.810416,-73.939961,110,9,"1,053,848","1,017,290,033",208,MN1002
Associated Supermarket,448 Lenox Avenue,,New York,10037,2018,6,40.812396,-73.942095,110,9,"1,053,885","1,017,300,001",212,MN1002
477 Food Corp,477 Lenox Avenue,,New York,10037,2018,6,40.813274,-73.94148,110,9,"1,058,228","1,019,180,036",226,MN1002
2082 Food Corp. Deli,2082 Madison Avenue,,New York,10037,2018,6,40.809627,-73.93782,111,9,"1,054,307","1,017,560,014",206,MN1102
1797 DELI GROCERY,1797 Prospect Place,,Brooklyn,11233,2018,6,40.672486,-73.916441,316,41,"3,039,196","3,014,590,001",363,BK1601
53 BUFFALO DELI,53 Buffalo Avenue,,Brooklyn,11233,2018,6,40.677333,-73.924748,303,41,"3,048,233","3,017,120,001",299,BK0302
A&H MINI MARKET,323 Ralph Avenue,,Brooklyn,11233,2018,6,40.677951,-73.921715,303,41,"3,042,318","3,015,560,005",301,BK1601
ADAMZ DELI & GRILL,354 Saratoga Avenue,,Brooklyn,11233,2018,6,40.673578,-73.916764,316,41,"3,039,059","3,014,520,051",303,BK1601
ATLANTIC BEST DELI,2053 Atlantic Avenue,,Brooklyn,11233,2018,6,40.676469,-73.913,316,41,"3,042,527","3,015,650,042",301,BK1601
EASY STOP DELI,2059 Fulton Street,,Brooklyn,11233,2018,6,40.678273,-73.910506,316,37,"3,042,005","3,015,420,001",369,BK1601
FULTON&SARATOGA DELI,1961 Fulton Street,,Brooklyn,11233,2018,6,40.678596,-73.916516,303,41,"3,041,785","3,015,360,001",379,BK0302
HANCOCK DELI,865 Hancock Street,,Brooklyn,11233,2018,6,40.685892,-73.920898,303,41,"3,039,877","3,014,870,047",375,BK0302
KEIRY DELI,483 Ralph Avenue,,Brooklyn,11233,2018,6,40.672657,-73.922215,316,41,"3,039,289","3,014,620,011",363,BK1601
KINGSBOROUGH DELI,374 Ralph Avenue,,Brooklyn,11233,2018,6,40.676014,-73.921923,308,41,"3,035,746","3,013,440,125",307,BK0802
MALCOLM X GROCERY,360 Malcolm X BLVD,,Brooklyn,11233,2018,6,40.680605,-73.928606,303,36,"3,047,822","3,016,860,049",297,BK0302
MALCOLM X SHOP SMART,297 Malcom X BLVD,,Brooklyn,11233,2018,6,40.681862,-73.928835,303,36,"3,047,555","3,016,820,010",381,BK0302
MONTSE DELI,564 Bainbridge Street,,Brooklyn,11233,2018,6,40.682914,-73.914066,316,41,"3,040,920","3,015,110,001",373,BK1601
MORALES GROCERY,433 Ralph Avenue,,Brooklyn,11233,2018,6,40.674337,-73.922058,316,41,"3,039,018","3,014,510,109",303,BK1601
QUALITY DELI,1872 Fulton Street,,Brooklyn,11233,2018,6,40.679029,-73.924663,303,41,"3,338,108","3,017,030,034",299,BK0302
STUYVESANT DELI SUPRMKT,357 Stuyvesant Avenue,,Brooklyn,11233,2018,6,40.682031,-73.93186,303,36,"3,047,132","3,016,760,007",297,BK0302
VA GROCERY AND DELI,207 Hull Street,,Brooklyn,11233,2018,6,40.679876,-73.908009,316,37,"3,041,784","3,015,350,057",369,BK1601
ASSOCIATED,1888 Fulton Street,,Brooklyn,11233,2018,6,40.678993,-73.924043,303,41,"3,048,044","3,017,040,012",299,BK0302
FOOD BAZAAR,1682 ST Johns Place,,Brooklyn,11233,2018,6,40.670077,-73.92188,316,41,,,361,BK1601
NSA SUPERMARKET,2220 Atlantic Avenue,,Brooklyn,11233,2018,6,40.67638,-73.911727,316,41,"3,324,662","3,014,340,001","36,501",BK1601
VALERIO & SONS DELI GROCERY,1383 Boston Road,,Bronx,10456,2018,6,40.832967,-73.897535,203,17,,,151,BX0301
TEJEDA’S GROCERY,271 E 166th Street,,Bronx,10456,2018,6,40.830489,-73.91553,204,16,"2,002,408","2,024,380,001",175,BX0401
FULTON DELI,1225 Fulton Avenue,,Bronx,10456,2018,6,40.830933,-73.90431,203,16,"2,004,226","2,026,100,062",145,BX0302
LA FUERTE DELI GROCERY,1408 Fulton Avenue,,Bronx,10456,2018,6,40.834741,-73.901771,203,15,"2,009,720","2,029,320,015",149,BX0301
LAYSHA DELI GROCERY,1274 WebsterAvenue,,Bronx,10456,2018,6,,,,,,,,
LOS HIJOS DE CHORRO DELI # 2,1278 Grand Concourse,,Bronx,10456,2018,6,40.836196,-73.916051,204,16,"2,002,775","2,024,570,044","17,901",BX0401
LOS MELLIZOS GROCERY DELI,199 East 165 Street,,Bronx,10456,2018,6,40.830374,-73.919017,204,16,"2,002,729","2,024,560,023","18,102",BX0401
A&M SUPERMARKET,1393 Webster Avenue,,Bronx,10456,2018,6,40.836099,-73.90749,204,16,"2,009,303","2,028,870,151","17,702",BX0403
735 SUPERMARKET,735 East 166 Street,,Bronx,10456,2018,6,40.826579,-73.902968,203,17,"2,004,648","2,026,510,052",135,BX0301
O & V DELI,1397 Franklin Avenue,,Bronx,10456,2018,6,40.834122,-73.90024,203,16,"2,009,702","2,029,310,057",149,BX0301
ONE FAMILY DELI GROCERY,292 East 166 Street,,Bronx,10456,2018,6,40.830198,-73.914681,204,16,"2,002,216","2,024,330,017",175,BX0401
180 LA SOLUCION,180 McClellan Street,,Bronx,10456,2018,6,40.832783,-73.918151,204,16,"2,002,741","2,024,560,070","18,102",BX0401
AYLIN GROCERY,388 E 169th Street,,Bronx,10456,2018,6,40.834248,-73.90979,204,16,"2,002,176","2,024,310,026","17,701",BX0401
BARAKA AFRICAN MKT STORE,1345 Webster Avenue,,Bronx,10456,2018,6,40.835103,-73.908051,204,16,"2,009,309","2,028,870,165","17,702",BX0403
BRAVO SUPERMARKET,210 East 170th Street,,Bronx,10456,2018,6,40.838472,-73.913142,204,16,"2,007,983","2,028,310,056","17,902",BX0403
ELAINY DELI GROCERY CORP,1154 Washington Avenue,,Bronx,10456,2018,6,40.828949,-73.908197,203,16,"2,001,294","2,023,710,023","18,501",BX0301
ELVA DELI GROCERY,751 Home Steet,,Bronx,10456,2018,6,,,,,,,,
FOOD BAZAAR,535 East 170th Street,,Bronx,10456,2018,6,40.834931,-73.903144,203,16,"2,009,624","2,029,260,002","14,702",BX0302
KEY FOOD,256 East 167th Street,,Bronx,10456,2018,6,40.833464,-73.914634,204,16,"2,002,600","2,024,490,053","18,101",BX0401
PIONEER SUPERMARKET,275 East 169th Street,,Bronx,10456,2018,6,40.835227,-73.912662,204,16,"2,007,270","2,027,850,002","17,702",BX0403
1296 SHERIDAN DELI GRCR,1296 Sheridan Avenue,,Bronx,10456,2018,6,40.836252,-73.914551,204,16,"2,007,963","2,028,300,001","17,902",BX0403
ABREU GROCERY,773 East 169th Street,,Bronx,10456,2018,6,40.83069,-73.899562,203,17,"2,010,166","2,029,610,010",151,BX0301
COMPARE SUPERMARKET,1091 Boston Road,,Bronx,10456,2018,6,40.827009,-73.905229,203,17,"2,004,185","2,026,070,062","18,502",BX0301
GREEN EARTH GRCY STORE,1420 Grand Concourse,,Bronx,10456,2018,6,40.839249,-73.913448,204,16,"2,007,988","2,028,320,008",225,BX0403
M&G FOOD CORP,391 East 167TH Street,,Bronx,10456,2018,6,40.830862,-73.910897,204,16,"2,002,074","2,024,260,048","17,701",BX0401
MCL FRUIT & VEGETABLES,227 East 167th Street,,Bronx,10456,2018,6,40.833717,-73.915389,204,16,"2,002,689","2,024,530,030","17,901",BX0401
PAPASE DELI GROCERY,1331 Webster Avenue,,Bronx,10456,2018,6,40.834708,-73.908272,204,16,"2,098,798","2,028,870,174","17,702",BX0403
Associated Supermarket,206 East 167th Street,,Bronx,10456,2018,6,40.833992,-73.916342,204,16,"2,002,757","2,024,560,227","18,102",BX0401
Associated Supermarket,1188 Webster Avenue,,Bronx,10456,2018,6,40.831542,-73.910025,203,16,"2,001,643","2,023,940,005",145,BX0302
Associated Supermarket,3470 Third Avenue,,Bronx,10456,2018,6,40.829999,-73.906313,203,16,"2,115,273","2,026,097,501",145,BX0302
Associated Supermarket,724 East 161st Street,,Bronx,10456,2018,6,40.821432,-73.905183,201,17,"2,098,384","2,026,470,045",77,BX0102
S & R DELI GROCERY CORP,300 East 170TH Street,,Bronx,10456,2018,6,40.837416,-73.910393,204,16,"2,007,196","2,027,830,035","17,702",BX0403
C TOWN SUPERMARKET,630 East 169ST Street,,Bronx,10456,2018,6,40.831164,-73.900894,203,17,"2,004,305","2,026,150,031",149,BX0301
C- TOWN SUPERMARKET,3690 Third Avenue,,Bronx,10456,2018,6,40.834976,-73.90353,203,16,"2,009,613","2,029,250,033","14,701",BX0302
SHOP FAIR SUPERMARKET,306 East 170 Street,,Bronx,10456,2018,6,40.837377,-73.910296,204,16,"2,007,197","2,027,830,037","17,702",BX0403
MR Grill Deli Grocery,1431 Prospect Avenue,,Bronx,10456,2018,6,40.833627,-73.896384,203,15,"2,009,831","2,029,370,062",151,BX0301
147 M&A grocery deli,147 Wilson Avenue,,Brooklyn,11237,2019,7,40.700422,-73.925209,304,34,"3,325,463","3,032,190,008",429,BK0401
ACOSTA GROCERY STORE,313 Wilson Avenue,,Brooklyn,11237,2019,7,40.696702,-73.918671,304,37,"3,075,664","3,033,070,001",433,BK0402
Anna’s Best,139 Saint Nicholas Avenue,,Brooklyn,11237,2019,7,40.705094,-73.917507,304,37,"3,073,962","3,032,500,001",445,BK0401
Bleecker Deli & Grill,442 Bleecker St # A,,Brooklyn,11237,2019,7,40.703707,-73.912705,304,37,"3,075,838","3,033,120,028",441,BK0401
Bushwick Deli,1449 Myrtle Avenue,,Brooklyn,11237,2019,7,40.698859,-73.917944,304,37,"3,326,381","3,033,000,001",431,BK0401
Chino’s Deli and Grill,422 Irving Avenue,,Brooklyn,11237,2019,7,40.696629,-73.910197,304,37,"3,077,341","3,033,780,034",435,BK0402
City Fresh Market,229 Knickerbocker Avenue,,Brooklyn,11237,2019,7,40.703017,-73.925736,304,34,"3,072,538","3,031,870,001",427,BK0401
DEKALB MARKET,1549 Dekalb Avenue,,Brooklyn,11237,2019,7,40.702936,-73.920597,304,37,"3,073,631","3,032,370,001",445,BK0401
D'ELIA DELI GROCERY,43 Wilson Avenue,,Brooklyn,11237,2019,7,40.702758,-73.929314,304,34,"3,071,968","3,031,580,001",427,BK0401
DOMINGO GROCERY,1004 Flushing Avenue,,Brooklyn,11237,2019,7,40.703819,-73.931012,304,34,"3,071,863","3,031,490,001",427,BK0401
Emita Grocery,1711 Harman Street,,Brooklyn,11237,2019,7,,,,,,,,
FOOD BAZAAR,17-59 Ridgewood Place,,Brooklyn,11237,2019,7,40.698456,-73.91119,304,37,"3,251,946","3,033,540,001",439,BK0402
Food Story,1552 Myrtle Avenue,,Brooklyn,11237,2019,7,40.699485,-73.911498,304,37,"3,426,800","3,033,457,501",439,BK0402
Halsey deli &Grill,1245 Halsey Street,,Brooklyn,11237,2019,7,40.693512,-73.90759,304,37,"3,078,689","3,034,060,050",437,BK0402
Irving Gourmet Deli,350 Irving Avenue,,Brooklyn,11237,2019,7,40.69791,-73.912453,304,37,"3,076,848","3,033,620,025",435,BK0402
Kanowa Deli,17-11 Bleecker Street,,Brooklyn,11237,2019,7,40.693104,-73.923216,304,37,,,395,BK0402
Key Food,72 Wyckoff Avenue,,Brooklyn,11237,2019,7,40.705039,-73.920414,304,34,"3,073,258","3,032,210,035",445,BK0401
Metfresh Supermarket,1397 Myrtle Avenue,,Brooklyn,11237,2019,7,40.69857,-73.920717,304,37,,,431,BK0401
Mi Pueblo Deli Mini Market Corp.,180 Irving Avenue,,Brooklyn,11237,2019,7,40.701761,-73.919217,304,37,"3,074,493","3,032,690,029",431,BK0401
Mr. Grocery,164 Irving Avenue,,Brooklyn,11237,2019,7,40.702187,-73.919967,304,37,"3,074,195","3,032,580,029",431,BK0401
Mr. Lemon,410 Knickerbocker Avenue,,Brooklyn,11237,2019,7,40.699749,-73.920024,304,37,"3,074,783","3,032,780,026",431,BK0401
NANA DELI GROCERY,182 Wilson Avenue,,Brooklyn,11237,2019,7,40.699516,-73.923652,304,37,"3,073,802","3,032,450,031",421,BK0401
Nen Grocery,201 Irving Avenue,,Brooklyn,11237,2019,7,40.701475,-73.918676,304,37,"3,074,519","3,032,700,001",443,BK0401
New Way Supermarket,114 Wyckoff Avenue,,Brooklyn,11237,2019,7,40.703783,-73.918403,304,37,"3,074,241","3,032,590,029",443,BK0401
Quisqueya Deli Grocery,181 Saint Nicholas Avenue,,Brooklyn,11237,2019,7,40.704056,-73.915748,304,37,"3,074,913","3,032,820,010",443,BK0401
Raydan Deli,276 Wilson Avenue,,Brooklyn,11237,2019,7,40.697075,-73.919363,304,37,"3,075,395","3,032,970,034",419,BK0402
Stop 1 Grocery Store,263 Wyckoff Avenue # A,,Brooklyn,11237,2019,7,40.701142,-73.91397,304,37,"3,075,988","3,033,200,010",441,BK0401
TAMBRU FRUIT MARKET,272 Knickerbocker Avenue,,Brooklyn,11237,2019,7,40.702236,-73.924388,304,34,"3,072,945","3,032,090,029",429,BK0401
Valdez Mini Market,1524 Jefferson Avenue,,Brooklyn,11237,2019,7,40.697294,-73.907365,304,37,"3,078,127","3,033,930,049",439,BK0402
Valerie Deli Grocery Corp,216 Knickerbocker Avenue,,Brooklyn,11237,2019,7,40.703297,-73.926262,304,34,"3,072,324","3,031,740,035",427,BK0401
Valerie Grocery,237 Irving Avenue,,Brooklyn,11237,2019,7,40.70062,-73.917173,304,37,"3,075,139","3,032,900,001",443,BK0401
Villa F deli grocery,17-12 Menahan Street,,Brooklyn,11237,2019,7,40.69273,-73.922419,304,37,"3,000,000","3,033,040,019",395,BK0402
Yasmin Deli Grocery,1436 Myrtle Avenue,,Brooklyn,11237,2019,7,40.698918,-73.917197,304,37,"3,075,683","3,033,080,013",433,BK0402
NADAL 3 DELI CONVENIENCE,888 Grand Concourse,,Bronx,10451,2019,7,40.826613,-73.922751,204,16,"2,002,796","2,024,590,034","5,902",BX0401
THIRD Avenue GROCERY&DELI,3047 3rd Avenue,,Bronx,10451,2019,7,40.820247,-73.913,201,17,"2,001,435","2,023,780,067",69,BX0102
Elvis Deli Grocery,430 Grand Concourse,,Bronx,10451,2019,7,40.817035,-73.927983,201,17,"2,001,013","2,023,430,012",51,BX0101
La Colonia Food,594 Morris Avenue,,Bronx,10451,2019,7,40.818403,-73.922287,201,17,"2,001,824","2,024,100,006",65,BX0102
C-Town supermarket,3220 Third Avenue,,Bronx,10451,2019,7,40.82348,-73.909043,203,17,"2,004,373","2,026,200,015",141,BX0301
C town Supermarket,2733 third Avenue,,Bronx,10451,2019,7,40.814329,-73.920981,201,8,"2,000,827","2,023,260,040",51,BX0101
Chris Deli Buffet Salad bar,903 Sheridan Avenue,,Bronx,10451,2019,7,40.827092,-73.920774,204,16,"2,002,804","2,024,600,018","18,301",BX0401
Fine Fare Supermarket,675 Morris Avenue # 5,,Bronx,10451,2019,7,40.820467,-73.921371,201,17,"2,114,677","2,024,420,060",65,BX0102
Key Food Supermarket,760 Melrose Avenue,,Bronx,10451,2019,7,40.821431,-73.915289,201,17,"2,114,124","2,023,780,001",69,BX0102
La Campiña Deli Grocery,802 Melrose Avenue,,Bronx,10451,2019,7,40.822584,-73.914684,201,17,"2,001,456","2,023,800,001",69,BX0102
Food Town,3100 3rd Avenue,,Bronx,10451,2019,7,40.821566,-73.912106,201,17,"2,127,465","2,023,640,045",71,BX0102
Food Bazaar,238 East 161 Street,,Bronx,10451,2019,7,40.825947,-73.919633,204,16,"2,002,456","2,024,430,090",61,BX0401
760 Grand Concourse Food Corp,760 Grand Concourse,,Bronx,10451,2019,7,40.823968,-73.9243,204,16,"2,002,788","2,024,580,072","5,902",BX0401
Court Side Deli II,845 Concourse West Village,,Bronx,10451,2019,7,,,,,,,,
URENA GROCERY,759 Gerard Avenue,,Bronx,10451,2019,7,40.825155,-73.92633,204,16,"2,002,971","2,024,820,030","6,301",BX0401
Gerard Food Market,740 Gerard Avenue,,Bronx,10451,2019,7,40.824719,-73.926561,204,16,"2,002,897","2,024,730,043","6,301",BX0401
M G DELI CORP,917 Sheridan Avenue,,Bronx,10451,2019,7,40.827923,-73.92031,204,16,"2,002,811","2,024,610,022","18,301",BX0401
153 Deli Grocery,153 East 149th,,Bronx,10451,2019,7,,,,,,,,
D G deli,528 Morris Avenue,,Bronx,10451,2019,7,40.817111,-73.922881,201,17,"2,000,884","2,023,300,005",65,BX0102
Amor Deli Grocery,21 Convent Avenue,,New York,10027,2019,7,40.813617,-73.953094,109,9,"1,059,591","1,019,680,029","21,303",MN0902
C TOWN,560 est 125th Street,,New York,10027,2019,7,,,,,,,,
Eleganza Gourmet Deli,1 Covent Avenue,,New York,10027,2019,7,,,,,,,,
FAMILY COMMUNITY DELI &,41 ST Nicholas Terr.,,New York,10027,2019,7,40.813663,-73.951262,109,9,"1,059,613","1,019,690,040","21,303",MN0902
Food town/Fine Fare Supermarket,2463 Frederick Douglass Blvd,,New York,10027,2019,7,40.81449,-73.948028,110,9,"1,089,116","1,019,580,024",215,MN1002
Lenox deli gourmet corp.,370 Malcolm X Blvd,,New York,10027,2019,7,40.810045,-73.943812,110,9,"1,053,712","1,017,260,069",208,MN1002
Gourmet Revolution,2090 7th Avenue,,New York,10027,2019,7,40.808639,-73.948582,110,9,"1,058,640","1,019,300,030",222,MN1001
Jhajara Deli -Anan Gourmet Deli,2391 Frederick Douglass Blvd,,New York,10027,2019,7,40.812323,-73.949609,110,9,"1,059,398","1,019,550,010",215,MN1002
Manhattan Food Market,507 Manhattan Avenue,,New York,10027,2019,7,40.80832,-73.954434,110,9,"1,059,184","1,019,480,012",257,MN1001
MANHATTANVILLE DELI,1413 Amsterdam Avenue,,New York,10027,2019,7,40.815476,-73.954726,109,7,"1,059,621","1,019,690,081","21,303",MN0902
Met Foodmarket,1316 Amsterdam Avenue,,New York,10027,2019,7,40.812515,-73.95691,109,7,"1,084,110","1,019,780,001",211,MN0901
Sarah Deli Grocery,201 West 131st Street,,New York,10027,2019,7,40.812933,-73.945985,110,9,"1,058,711","1,019,370,028",226,MN1002
Shop & Fair Supermarket,2108 Adam Clayton Powell Blvd,,New York,10027,2019,7,40.809286,-73.948112,110,9,"1,058,661","1,019,310,036",222,MN1001
St Nicholas Express Deli Inc,25 Saint Nicholas Ter # 1,,New York,10027,2019,7,40.813136,-73.951642,109,9,"1,059,596","1,019,680,039","21,303",MN0902
Sweet corner grocery,550 West 126 Street,,New York,10027,2019,7,40.815638,-73.957009,109,7,"1,059,715","1,019,820,068",219,MN0902
THRIFTY DELI SPRMKT,3149 Broadway,,New York,10027,2019,7,40.814248,-73.959354,109,7,"1,059,852","1,019,930,081",211,MN0901
SIRAH 1720 LLC,535 MARCY AVE,,Brooklyn,11206,2020,8,40.696961,-73.949512,303,36,"3,338,591","3,017,390,001",257,BK0301
M AND D MINI MARKET,613 MARCY AVE,,Brooklyn,11206,2020,8,40.693796,-73.948883,303,36,"3,322,077","3,017,670,007",261,BK0301
FIRST STOP GROCERY INC,643 MARCY AVE,,Brooklyn,11206,2020,8,40.692552,-73.948632,303,36,"3,049,316","3,017,710,001",261,BK0301
BC GROCERY CORP,305 THROOP AVE,,Brooklyn,11206,2020,8,40.69325,-73.942973,303,36,"3,049,410","3,017,730,001",281,BK0302
TAJUKEN DELI CORP,114 MARCUS GARVEY BLVD,,Brooklyn,11206,2020,8,40.694772,-73.940401,303,36,"3,049,214","3,017,690,039",283,BK0302
AANDE DIRECT LLC,40 LEWIS AVE,,Brooklyn,11206,2020,8,40.696631,-73.937792,303,36,"3,042,883","3,015,850,035",283,BK0302
CENTRAL ORGANIC,67 CENTRAL AVE,,Brooklyn,11206,2020,8,40.701096,-73.930445,304,34,"3,072,058","3,031,640,008",425,BK0401
ALBANITA DELI GROCERY CORP,586 BUSHWICK AVE,,Brooklyn,11206,2020,8,40.698801,-73.934973,304,34,"3,071,889","3,031,500,030",389,BK0401
194 THROOP FOOD CORP,777 PARK AVE,,Brooklyn,11206,2020,8,40.698191,-73.944311,303,36,"3,335,580","3,017,320,026",257,BK0301
BROADWAY ORGANIC DELI INC,799 BROADWAY,,Brooklyn,11206,2020,8,40.699745,-73.940176,304,34,"3,071,692","3,031,320,007",389,BK0401
STAY FRESH GRILL II CORP,889 BROADWAY,,Brooklyn,11206,2020,8,40.698031,-73.937095,304,34,"3,071,785","3,031,360,005",389,BK0401
L STOP GOURMET DELI CORP,223 MONTROSE AVE,,Brooklyn,11206,2020,8,40.707628,-73.940213,301,34,"3,071,163","3,030,540,026","49,302",BK0104
7 SEAS GROCERY CORP,235 BUSHWICK AVE,,Brooklyn,11206,2020,8,40.707908,-73.93987,301,34,"3,071,186","3,030,550,023","49,302",BK0104
MLD 91 FOOD CORP,91 HUMBOLDT ST,,Brooklyn,11206,2020,8,40.704472,-73.941009,301,34,"3,325,958","3,030,970,018",491,BK0104
JC DELI AND GRILL CORPORATION,442 LORIMER ST,,Brooklyn,11206,2020,8,40.710105,-73.948708,301,34,"3,338,218","3,027,920,002",503,BK0104
ROCKY DELI GROCERY INC,590 BROADWAY,,Brooklyn,11206,2020,8,40.703761,-73.947242,301,33,"3,061,336","3,022,470,013",509,BK0103
HERMANOS ACOSTA FOOD CORP,166 MANHATTAN AVE,,Brooklyn,11206,2020,8,40.708517,-73.945096,301,34,"3,327,922","3,030,430,008",505,BK0104
131 MANHATTAN DELI GROCERY CORP,134 MANHATTAN AVE,,Brooklyn,11206,2020,8,40.707282,-73.944905,301,34,"3,071,105","3,030,520,001",505,BK0104
GRAHAM STOP ONE DELI INC,146 GRAHAM AVE,,Brooklyn,11206,2020,8,40.70643,-73.943045,301,34,"3,338,421","3,030,710,007","49,302",BK0104
MR NICE GUY DELI GRILL,92 MANHATTAN AVE,,Brooklyn,11206,2020,8,40.705465,-73.944629,301,34,"3,071,334","3,030,790,005",505,BK0104
FAMOUS DELI AND GRILL INC,116 GRAHAM AVE,,Brooklyn,11206,2020,8,40.705288,-73.942858,301,34,"3,071,349","3,030,800,001","49,302",BK0104
BOGOPA MANHATTAN INC,21 MANHATTAN AVE,,Brooklyn,11206,2020,8,40.702939,-73.944235,301,34,"3,000,000","3,031,040,001",491,BK0104
LEE HEYWARD GROCERY INC,198 LEE AVE,,Brooklyn,11206,2020,8,40.701855,-73.955636,301,33,"3,061,119","3,022,310,035","53,101",BK0103
574 MARCY DELI CORP,574 MARCY AVE,,Brooklyn,11206,2020,8,40.695056,-73.949153,303,36,"3,338,620","3,017,540,044",253,BK0301
164 TOMPKIN DELI,164 TOMPKINS ST,,Brooklyn,11206,2020,8,,,,,,,,
BROOKLYNS FINEST DELI CORP,131 TOMPKINS AVE,,Brooklyn,11206,2020,8,40.695076,-73.946235,303,36,"3,048,663","3,017,560,001","25,901",BK0301
J A TOMPKINS FOOD CORP,920 MYRTLE AVE,,Brooklyn,11206,2020,8,40.695814,-73.945344,303,36,"3,048,667","3,017,560,023","25,901",BK0301
GAWAD DELI GROCERY CORP,207 HART ST,,Brooklyn,11206,2020,8,40.693782,-73.943525,303,36,"3,049,177","3,017,680,047",261,BK0301
JRM DELI GROCERY CORP,98 MARCUS GARVEY BLVD,,Brooklyn,11206,2020,8,40.695505,-73.940544,303,36,"3,048,912","3,017,610,035",283,BK0302
AFS MARKET INC,1102 MYRTLE AVE,,Brooklyn,11206,2020,8,40.696817,-73.936605,303,36,"3,000,000","3,015,867,501",287,BK0302
MONEGRO HECTOR E,105 CENTRAL AVE,,Brooklyn,11206,2020,8,40.700362,-73.929144,304,34,"3,072,263","3,031,730,001",425,BK0401
GREEN CORNER OF NY LLC,801 FLUSHING AVE,,Brooklyn,11206,2020,8,40.701019,-73.940705,301,34,"3,071,664","3,031,270,027",491,BK0104
726 MEAT MARKET INC,726 BROADWAY,,Brooklyn,11206,2020,8,40.701171,-73.942667,301,33,"3,061,510","3,022,760,022",507,BK0103
711 BROOKLYN DELI CORP,711 FLUSHING AVE,,Brooklyn,11206,2020,8,40.700458,-73.944197,301,33,"3,061,500","3,022,767,502",507,BK0103
BNS HOT DELI CORP,773 PARK AVE,,Brooklyn,11206,2020,8,40.698174,-73.944451,303,36,"3,048,408","3,017,320,028",257,BK0301
EAGLE DELI AND GRILL INC,317 BUSHWICK AVE,,Brooklyn,11206,2020,8,40.705468,-73.939457,301,34,"3,071,364","3,030,820,001",485,BK0104
BUSHWICK DELI GROCERY CORP,285 BUSHWICK AVE,,Brooklyn,11206,2020,8,40.706409,-73.939619,301,34,"3,327,968","3,030,730,017","49,302",BK0104
THE LUNCH BOX DELI CORP,204 BUSHWICK AVE,,Brooklyn,11206,2020,8,40.708767,-73.940031,301,34,"3,071,014","3,030,450,017","49,302",BK0104
PAULA MARKET AND DELI CORP,276 HUMBOLDT ST,,Brooklyn,11206,2020,8,40.711173,-73.942114,301,34,"3,069,626","3,027,900,001",495,BK0104
MAJOR DELI AND GROCERY CORP,203 MAUJER ST,,Brooklyn,11206,2020,8,40.711063,-73.942161,301,34,"3,323,054","3,027,890,026",495,BK0104
SEM SEM DELI CORP,75 HUMBOLDT ST,,Brooklyn,11206,2020,8,40.704022,-73.940926,301,34,"3,071,460","3,030,970,024",491,BK0104
LORIMER DELI FOOD CORP,400 LORIMER ST,,Brooklyn,11206,2020,8,40.708821,-73.948497,301,34,"3,070,864","3,030,320,005",511,BK0104
ORANGE TREE ORGANIC MARKET CORP,121 GRAHAM AVE,,Brooklyn,11206,2020,8,40.705994,-73.942995,301,34,"3,071,280","3,030,700,026",505,BK0104
BONILLA CARLOS M,62 MANHATTAN AVE,,Brooklyn,11206,2020,8,40.704416,-73.944457,301,34,"3,071,408","3,030,880,035",491,BK0104
EXPRESS GROCERY AND DELI CORPORATIO,25 BEAVER ST,,Brooklyn,11206,2020,8,40.700609,-73.938376,304,34,"3,071,711","3,031,330,024",389,BK0401
128 T EDGECOMBE DELI CORP,128 EDGECOMBE AVE,,New York,10030,2020,8,40.820961,-73.945071,110,9,"1,060,736","1,020,430,001",259,MN1002
135 FUTURE LANDM CORP,24 WEST 135TH ST,,New York,10037,2020,8,40.813209,-73.938756,110,9,"1,053,894","1,017,300,052",212,MN1002
135TH STREET DELI AND GROCERY CORP,266 WEST 135TH ST,,New York,10030,2020,8,40.816213,-73.945877,110,9,"1,058,855","1,019,400,060",228,MN1002
141 FINEST DELI CORP,332 WEST 141ST ST,,New York,10030,2020,8,40.820958,-73.945375,110,9,"1,060,914","1,020,480,041","22,102",MN1002
2278 DELI AND GROCERY INC,2278 7TH AVE,,New York,10030,2020,8,40.814546,-73.944268,110,9,"1,058,817","1,019,390,036",226,MN1002
477 FOOD CORP,477 LENOX AVE,,New York,10037,2020,8,40.813274,-73.94148,110,9,"1,058,228","1,019,180,036",226,MN1002
7TH AVE DELI GROCERY CORP,2417 ADAM CLAYTON POWELL JR BLVD,,New York,10030,2020,8,40.819208,-73.940835,110,9,"1,060,083","1,020,100,001",230,MN1002
ADAM 1 FOOD CENTER INC,2657 FREDERICK DOUGLAS BLVD,,New York,10030,2020,8,40.820741,-73.943464,110,9,"1,060,752","1,020,430,018",259,MN1002
BEST OF HARLEM CORP,585 LENOX AVE,,New York,10037,2020,8,40.817351,-73.938503,110,9,"1,060,066","1,020,090,029",230,MN1002
BIG APPLE GRILL DELI INC,521 LENOX AVE,,New York,10037,2020,8,40.814873,-73.940311,110,9,"1,058,330","1,019,210,029",228,MN1002
EL PATIO DELI CORP,2082 MADISON AVE,,New York,10037,2020,8,40.809627,-73.93782,111,9,"1,054,307","1,017,560,014",206,MN1102
ESAYI CORP,2461 ADAM CLAYTON POWELL JR BLVD,,New York,10030,2020,8,40.820418,-73.939952,110,9,"1,060,128","1,020,120,001",232,MN1002
FUNFAIR DELI CORP,537 LENOX AVE,,New York,10037,2020,8,40.815499,-73.939852,110,9,"1,060,002","1,020,060,029",228,MN1002
GOLDEN DELI GROCERY CORP,2210 5TH AVE,,New York,10037,2020,8,40.812473,-73.937835,110,9,"1,053,891","1,017,300,040",212,MN1002
HARLEM EMPIRE DELI INC,251 WEST 135TH ST,,New York,10030,2020,8,40.816238,-73.945895,110,9,"1,058,868","1,019,410,001",228,MN1002
JANET FOOD CORP,2630 FREDERICK DOUGLASS BLVD,,New York,10030,2020,8,40.819764,-73.944155,110,9,"1,089,378","1,020,267,501",230,MN1002
K AND S DELI CORP,429 LENOX AVE,,New York,10037,2020,8,40.811888,-73.942496,110,9,"1,058,104","1,019,160,031",226,MN1002
LENOX 551 DELI GROCERY CORP,551 LENOX AVE,,New York,10037,2020,8,40.815935,-73.939534,110,9,"1,060,007","1,020,060,036",228,MN1002
LENOX AND 132ND FOOD CORP,448 LENOX AVE,,New York,10037,2020,8,40.812396,-73.942095,110,9,"1,053,885","1,017,300,001",212,MN1002
LINCOLN DELI GROCERY INC 1,2095 MADISON AVE,,New York,10037,2020,8,40.809959,-73.937238,111,9,"1,054,327","1,017,560,049",206,MN1102
MANDS FOOD CORP,2482 7TH AVE,,New York,10030,2020,8,40.821167,-73.939431,110,9,"1,060,456","1,020,300,029",232,MN1002
MO DELI AND GRILL CORP,665 LENOX AVE,,New York,10037,2020,8,40.81925,-73.937114,110,9,"1,060,141","1,020,120,029",232,MN1002
MR 2497 FOOD CORP,2497 7TH AVE,,New York,10030,2020,8,40.821482,-73.939178,110,9,"1,060,175","1,020,130,061",232,MN1002
NUNEZ DOMINGO,2591 8TH AVE,,New York,10030,2020,8,40.818518,-73.945088,110,9,"1,060,668","1,020,410,047","22,102",MN1002
RIMAR GOURMET DELI INC,2611 FREDERICK DOUGLAS BLVD,,New York,10030,2020,8,40.819097,-73.944665,110,9,"1,085,457","1,020,427,502","22,102",MN1002
ROSANNA FOOD CORP,592 LENOX AVE,,New York,10037,2020,8,40.817088,-73.938669,110,9,"1,053,937","1,017,370,011",214,MN1002
WINSOME DELI INC,482 LENOX AVE,,New York,10037,2020,8,40.813266,-73.941458,110,9,"1,053,897","1,017,300,068",212,MN1002
1029 FOOD PLAZA INC,1203 Sutter Avenue,,Bronx,10453,2020,8,,,,,,,,
109 AJ DELI GROCERY CORP,1211 Liberty Avenue,,Bronx,10453,2020,8,,,,,,,,
124-176 MORRIS GROCERY CORP,241 Ridgewood Avenue,,Bronx,10453,2020,8,,,,,,,,
19 W BRONX DELI GROCERY CORP,224 Lincoln Avenue,,Bronx,10453,2020,8,,,,,,,,
48 BURNSIDE FOOD CORP,290 Arlington Avenue,,Bronx,10453,2020,8,,,,,,,,
58 BURNSIDE FOOD CORP,690 Linwood St.,,Bronx,10453,2020,8,,,,,,,,
60 WEST 183RD ST FOOD CORP,1075 Liberty Avenue,,Bronx,10453,2020,8,,,,,,,,
65 BURNSIDE MEAT MARKET CORP,3336 Fulton St,,Bronx,10453,2020,8,,,,,,,,
ADRIAN GROCERY STORE INC,1055 Blake Avenue,,Bronx,10453,2020,8,,,,,,,,
ALEX FOOD II CORP,1615 UNIVERSITY AVE,,Bronx,10453,2020,8,40.847317,-73.919933,205,14,"2,008,983","2,028,780,015","21,501",BX0501
ALTAGRACIA GROCERY CORP,10 EAST 176TH ST,,Bronx,10453,2020,8,40.848576,-73.911408,205,14,"2,008,209","2,028,500,009","22,701",BX0502
AMOR SUPERMARKET CORP,35 WEST 183RD ST,,Bronx,10453,2020,8,40.85885,-73.905292,207,14,"2,014,231","2,031,970,016",253,BX0701
BBC DELI GROCERY CORP,51 EAST TREMONT AVE,,Bronx,10453,2020,8,40.851275,-73.908322,205,14,"2,007,940","2,028,290,026",241,BX0502
BONAO MEATS AND PRODUCE II INC,82 EAST BURNSIDE AVE,,Bronx,10453,2020,8,40.853268,-73.905933,205,14,"2,007,948","2,028,290,045",241,BX0502
BURNSIDE AVE FOOD CENTER INC,111 EAST BURNSIDE AVE,,Bronx,10453,2020,8,40.853059,-73.905344,205,14,"2,013,846","2,031,690,059",241,BX0502
CRUZ MEAT CORP,2262 JEROME AVE,,Bronx,10453,2020,8,40.85815,-73.904025,205,14,"2,014,063","2,031,860,055",239,BX0503
GANDA DELI GROCERY CORP,129 WEST TREMONT AVE,,Bronx,10453,2020,8,40.850025,-73.913756,205,14,"2,008,582","2,028,690,001",243,BX0501
GAVA FOOD CORP,127 WEST BURNSIDE AVE,,Bronx,10453,2020,8,40.853829,-73.913899,205,14,"2,014,850","2,032,210,005","24,502",BX0501
ILIANA DELI GROCERY LLC,25 EAST 176TH ST,,Bronx,10453,2020,8,40.848496,-73.910921,205,14,"2,008,228","2,028,510,036","23,301",BX0502
JD DELI AND PIZZA INC,2207 JEROME AVE,,Bronx,10453,2020,8,40.857217,-73.904601,205,14,"2,014,209","2,031,960,038",239,BX0503
JESSICA SUPERMARKET CORP,1645 GRAND AVE,,Bronx,10453,2020,8,40.846985,-73.91513,205,14,"2,008,449","2,028,660,015","21,502",BX0501
JULIAN GROCERY CORP,143 WEST BURNSIDE AVE,,Bronx,10453,2020,8,40.853898,-73.91434,205,14,"2,014,851","2,032,210,007","24,502",BX0501
LA GRAN FAMOSA FOOD MARKET CORP,1704 GRAND AVE,,Bronx,10453,2020,8,40.848507,-73.914025,205,14,"2,008,497","2,028,670,030",217,BX0501
LA PODEROSA GROCERY STORE CORP,27 EAST 175TH ST,,Bronx,10453,2020,8,40.847498,-73.911887,205,14,"2,008,212","2,028,500,031","22,701",BX0502
LOS COMPADRES - 1 GROCERY INC,21 WEST 176TH ST,,Bronx,10453,2020,8,40.848468,-73.913122,205,14,"2,008,520","2,028,670,155",217,BX0501
LOS PINOS FOOD CORP,148 EAST BURNSIDE AVE,,Bronx,10453,2020,8,40.852452,-73.904629,205,14,"2,101,575","2,028,080,082","23,501",BX0502
LUCKY 3 CONVENIENCE AND DELI CORP,16 WEST 177TH ST,,Bronx,10453,2020,8,40.850097,-73.911399,205,14,"2,008,373","2,028,610,140",217,BX0501
MORRIS BEST DELI AND GRILL INC,16 EAST 183RD ST,,Bronx,10453,2020,8,40.858583,-73.903355,205,14,"2,014,065","2,031,860,063",239,BX0503
MY FAMILY DELI GROCERY CORP,54 EAST 181ST ST,,Bronx,10453,2020,8,40.855271,-73.904564,205,14,"2,013,952","2,031,780,031",241,BX0502
PALMAR MINI MARKET INC,2160 WALTON AVE,,Bronx,10453,2020,8,40.855644,-73.904491,205,14,"2,013,969","2,031,800,009",239,BX0503
PAN DELI GROCERY CORP,1893 ANDREWS AVE,,Bronx,10453,2020,8,40.85362,-73.913889,205,14,"2,009,122","2,028,790,204","24,501",BX0501
PEGUERO GRAND GROCERY CORP,2241 GRAND AVE,,Bronx,10453,2020,8,40.858176,-73.90623,205,14,"2,014,511","2,032,080,015",251,BX0501
PRIMAVERA DELI GROCERY CORP,79 EAST BURNSIDE AVE,,Bronx,10453,2020,8,40.853301,-73.905973,205,14,"2,013,956","2,031,780,060",241,BX0502
PUNAL GROCERY CORP,218 WEST TREMONT AVE,,Bronx,10453,2020,8,40.85208,-73.91718,205,14,"2,008,965","2,028,770,521","20,502",BX0501
RAYKELL FOOD CORP,78 WEST 183RD ST,,Bronx,10453,2020,8,40.859302,-73.906622,205,14,"2,014,528","2,032,080,036",251,BX0501
SABOR CRIOLLO GROCERY CORP,1841 GRAND CONCOURSE,,Bronx,10453,2020,8,40.848022,-73.907336,205,14,"2,007,620","2,028,050,023","23,301",BX0502
SAZON DELI GROCERY CORP,131 EAST 183RD ST,,Bronx,10453,2020,8,40.857727,-73.900811,205,14,"2,013,773","2,031,640,001","23,703",BX0503
SHOP LAND DISCOUNT CORP,25 WEST TREMONT AVE,,Bronx,10453,2020,8,40.851922,-73.910883,205,14,"2,008,621","2,028,690,167",243,BX0501
SWEET CORNER FOOD CENTER CORP,1971 GRAND AVE,,Bronx,10453,2020,8,40.852161,-73.910789,205,14,"2,008,620","2,028,690,163",243,BX0501
TEAMS MARKET INC,1791 WALTON AVE,,Bronx,10453,2020,8,40.848015,-73.909927,205,14,"2,114,111","2,028,500,052","22,701",BX0502
THREE TIMES C FOOD CORP,1707 UNIVERSITY AVE,,Bronx,10453,2020,8,40.849338,-73.917089,205,14,"2,088,267","2,028,780,222","21,501",BX0501
TRES K DELI GRCY FRUITANDMEAT INC,125 WEST TREMONT AVE,,Bronx,10453,2020,8,40.850041,-73.913619,205,14,"2,008,601","2,028,690,058",243,BX0501
TU GENTE DELI AND GROCERY CORP,1801 UNIVERSITY AVE,,Bronx,10453,2020,8,40.850561,-73.91536,205,14,"2,009,089","2,028,790,100","24,501",BX0501
VILLA TRINA FOOD CORP,70 EAST 183RD ST,,Bronx,10453,2020,8,40.858247,-73.902387,205,14,"2,013,992","2,031,820,031",239,BX0503
48 Burnside Food Corp (Food Dynasty Supermarket),40 W Burnside Avenue,,Bronx,10453,2022,9,40.853839,-73.909077,205,14,"2,008,631","2,028,700,026",243,BX0501
58 Burnside Food Corp,58 W Burnside Avenue,,Bronx,10453,2022,9,40.854163,-73.909767,205,14,"2,008,608","2,028,690,127",243,BX0501
151 E Tremont Food Corp (Compare Supermarket),151 E Tremont Avenue,,Bronx,10453,2022,9,40.8502,-73.906783,205,14,"2,007,681","2,028,080,004","23,501",BX0502
183 Food Market Corp (Food Universe Supermarket),60 W 183rd Street,,Bronx,10453,2022,9,40.85917,-73.906246,205,14,"2,014,529","2,032,080,039",251,BX0501
1029 Food Plaza Inc,122 E 181 Street,,Bronx,10453,2022,9,40.854853,-73.903444,205,14,"2,013,841","2,031,690,034",241,BX0502
A B International Market Inc (African),2235 Jerome Avenue,,Bronx,10453,2022,9,40.857552,-73.904398,205,14,"2,014,208","2,031,960,036",239,BX0503
AD Food Corp (Antillana Supermarket),2285 Grand Concourse,,Bronx,10453,2022,9,40.857079,-73.900173,205,14,"2,013,769","2,031,630,026","23,704",BX0503
Amor Supermarket Corp,35 W 183rd Street,,Bronx,10453,2022,9,40.85885,-73.905292,207,14,"2,014,231","2,031,970,016",253,BX0701
Ashley & Wilbis,2160 Walton Avenue,,Bronx,10453,2022,9,40.855644,-73.904491,205,14,"2,013,969","2,031,800,009",239,BX0503
BBC Deli Grocery Corp,51 E Tremont Avenue,,Bronx,10453,2022,9,40.851275,-73.908322,205,14,"2,007,940","2,028,290,026",241,BX0502
Bonoful Grocery Inc,7 E 182nd Street,,Bronx,10453,2022,9,40.85726,-73.904293,205,14,"2,014,059","2,031,860,041",239,BX0503
Charisse And Christine Enterprise Ltd (C-Town),1750 University Avenue,,Bronx,10453,2022,9,40.849322,-73.917079,205,14,"2,008,836","2,028,760,118","21,502",BX0501
Cruz Meat Corp (Pioneer Supermarket),2262 Jerome Avenue,,Bronx,10453,2022,9,40.85815,-73.904025,205,14,"2,014,063","2,031,860,055",239,BX0503
Fama Food Corp (C-Town),2276 Creston Avenue,,Bronx,10453,2022,9,40.857302,-73.901203,205,14,"2,088,406","2,031,630,017","23,704",BX0503
Franco Fruit And Vegetable,121 E Burnside Avenue,,Bronx,10453,2022,9,40.853012,-73.905221,205,14,"2,013,846","2,031,690,059",241,BX0502
Gava Food Corp (Bravo Supermarket),127 W Burnside Avenue,,Bronx,10453,2022,9,40.853829,-73.913899,205,14,"2,014,850","2,032,210,005","24,502",BX0501
La Vega Food (Villa Trina Food),70 East 183rd Street,,Bronx,10453,2022,9,40.858247,-73.902387,205,14,"2,013,992","2,031,820,031",239,BX0503
Los Castlillos Mini Market (Supermarket),1601 University Avenue,,Bronx,10453,2022,9,40.846977,-73.920465,205,14,"2,008,980","2,028,780,001","21,501",BX0501
Los Pinos Food Corp (Food Universe Supermarket),148 E Burnside Avenue,,Bronx,10453,2022,9,40.852452,-73.904629,205,14,"2,101,575","2,028,080,082","23,501",BX0502
Peguero Grand Grocery Corp,2241 Grand Avenue,,Bronx,10453,2022,9,40.858176,-73.90623,205,14,"2,014,511","2,032,080,015",251,BX0501
Tres K Deli,125 W Tremont Avenue,,Bronx,10453,2022,9,40.850041,-73.913619,205,14,"2,008,601","2,028,690,058",243,BX0501
El Patio Deli Corp.,2082 Madison Avenue,,New York,10037,2022,9,40.809627,-73.93782,111,9,"1,054,307","1,017,560,014",206,MN1102
Lenox & 132nd Food Corp.,424 West 135th Street,,New York,10037,2022,9,40.818092,-73.950161,109,9,"1,084,073","1,019,570,001","21,703",MN0902
Fine Fare Supermarket,48 Lenox Avenue,,New York,10037,2022,9,40.799552,-73.95145,110,9,,,186,MN1001
Golden Deli Grocery Corp.,2210 5th Avenue,,New York,10037,2022,9,40.812473,-73.937835,110,9,"1,053,891","1,017,300,040",212,MN1002
AJ Food Center,1 West 131th Street,,New York,10037,2022,9,40.810416,-73.939961,110,9,"1,053,848","1,017,290,033",208,MN1002
Exquisite Deli & Grill,521 Malcom X Blvd,,New York,10037,2022,9,,,,,,,,
FunFair Deli Corp.,537 Lenox Avenue,,New York,10037,2022,9,40.815499,-73.939852,110,9,"1,060,002","1,020,060,029",228,MN1002
Key Food Supermarket,592 Lenox Avenue,,New York,10037,2022,9,40.817088,-73.938669,110,9,"1,053,937","1,017,370,011",214,MN1002
Domingo Grocery,2591 8th Avenue,,New York,10030,2022,9,40.818518,-73.945088,110,9,"1,060,668","1,020,410,047","22,102",MN1002
Farida Halal African Market,2529 Frederick Douglas Blvd,,New York,10030,2022,9,40.816674,-73.946433,110,9,"1,059,463","1,019,600,013","22,102",MN1002
135th St. Deli & Grocery,266 West 135th Street,,New York,10030,2022,9,40.816213,-73.945877,110,9,"1,058,855","1,019,400,060",228,MN1002
3 JS Deli Grocery INC.,1098 Anderson Avenue,,Bronx,10452,2023,10,40.834714,-73.9253,204,16,"2,003,059","2,025,050,017",193,BX0402
53 JM Deli Grocery Corp,53 West 167th Street,,Bronx,10452,2023,10,40.836139,-73.924626,204,16,"2,003,156","2,025,100,001",199,BX0402
152 VM Grocery Corp,152 East 171 Street,,Bronx,10452,2023,10,40.84021,-73.91417,204,16,"2,007,998","2,028,330,014",223,BX0403
881 Stadium Food Corp,881 Gerard Avenue,,Bronx,10452,2023,10,40.827924,-73.924704,204,16,"2,002,990","2,024,840,033",195,BX0401
1289 JC Deli Grocery Corp,1289 Walton Avenue,,Bronx,10452,2023,10,40.837053,-73.917943,204,16,"2,002,966","2,024,810,023","22,101",BX0403
1296 Rivera Grocery Inc,1296 Walton Avenue,,Bronx,10452,2023,10,40.83741,-73.917636,204,16,"2,008,034","2,028,390,039","22,102",BX0403
1434 Food CO LLC,1434 Jerome Avenue,,Bronx,10452,2023,10,40.840986,-73.917132,204,16,"2,008,093","2,028,430,012",223,BX0403
1538 Deli Grocery Corp,1538 University Avenue,,Bronx,10452,2023,10,40.845806,-73.921991,205,14,"2,008,785","2,028,750,045","21,301",BX0501
1605 Grocery and Deli Market Corp,1605 Inwood Avenue,,Bronx,10452,2023,10,40.845574,-73.915309,205,14,"2,008,427","2,028,650,110",217,BX0501
Alra Corp,1384 Nelson Avenue,,Bronx,10452,2023,10,40.841588,-73.922593,204,16,"2,098,366","2,025,200,032",211,BX0402
A&R Grocery  Deli Corp,57 East 168th Street,,Bronx,10452,2023,10,40.836717,-73.919216,204,16,"2,002,962","2,024,810,001","22,101",BX0403
Barbara Deli Food Corp,1027 Walton Avenue,,Bronx,10452,2023,10,40.830735,-73.922027,204,16,"2,002,939","2,024,770,021",195,BX0401
C & C Brothers of NY,59 East 167th Street,,Bronx,10452,2023,10,40.835507,-73.920612,204,16,"2,003,016","2,024,890,071",197,BX0401
Deli Mini Market Corp,1472 Inwood Avenue,,Bronx,10452,2023,10,40.842095,-73.917782,204,16,"2,008,313","2,028,580,001",219,BX0403
Daylan Deli Corp,100 West 168th Street,,Bronx,10452,2023,10,40.838274,-73.924313,204,16,"2,003,290","2,025,150,025",199,BX0402
Eddie's Place African Market INC.,5 East 167th Street,,Bronx,10452,2023,10,40.836013,-73.922075,204,16,"2,003,005","2,024,890,001",197,BX0401
Emporium Supermarket Corp,148 East 170th Street,,Bronx,10452,2023,10,40.839055,-73.914663,204,16,"2,008,086","2,028,420,055","22,102",BX0403
Fredarlet Deli Grocery Corp,1575 Walton Avenue,,Bronx,10452,2023,10,40.843196,-73.91336,204,16,"2,008,126","2,028,450,040",209,BX0403
La Mexicana Fruit and Grocery Corp,1322 Jerome Avenue,,Bronx,10452,2023,10,40.838534,-73.918895,204,16,"2,008,044","2,028,400,001","22,101",BX0403
Lay Deli Grocery INC,125 West 165 Street,,Bronx,10452,2023,10,40.834307,-73.928173,204,16,"2,003,263","2,025,140,036",193,BX0402
Leudy Deli Grocery Corp,1310 Jerome Avenue,,Bronx,10452,2023,10,40.838303,-73.919091,204,16,"2,008,025","2,028,390,005","22,101",BX0403
L S Grocery Deli Inc.,1388 Jesup Avenue,,Bronx,10452,2023,10,40.840915,-73.920978,204,16,"2,008,657","2,028,720,050","21,302",BX0403
Los Primos Mini Market Inc.,1050 Woodycrest Avenue,,Bronx,10452,2023,10,40.833563,-73.927267,204,16,"2,003,140","2,025,080,022",189,BX0402
Miandav Food Corp,1187 Jerome Avenue,,Bronx,10452,2023,10,40.835731,-73.922964,204,16,"2,003,073","2,025,060,001",199,BX0402
New Kuku's Market Corp,111 East 167th Street,,Bronx,10452,2023,10,40.834957,-73.918994,204,16,"2,002,850","2,024,650,001",197,BX0401
Pascual Jorge,951 Odgen Avenue,,Bronx,10452,2023,10,,,,,,,,
Richard's Deli Grocery & Mex Product,1356 Jerome Avenue,,Bronx,10452,2023,10,40.839272,-73.918371,204,16,"2,092,055","2,028,410,001","22,101",BX0403
San Jose Mini Market Corp,1055 Walton Avenue,,Bronx,10452,2023,10,40.831564,-73.921538,204,16,"2,002,953","2,024,780,064",195,BX0401
Shakespeare Deli and Grocery Inc.,1174 Shakespeare Avenue,,Bronx,10452,2023,10,40.835981,-73.923438,204,16,"2,003,074","2,025,060,005",199,BX0402
West 170st Deli Grocery Corp,1346 Edward L Grant Highway,,Bronx,10452,2023,10,40.840531,-73.921604,204,16,"2,101,691","2,028,720,040","21,302",BX0403
Wanda RP Corp,104 Elliot Place,,Bronx,10452,2023,10,40.838847,-73.916185,204,16,"2,008,061","2,028,410,045","22,102",BX0403
JLT 156 Food Corp (Bravo),156 West 170th Street,,Bronx,10452,2023,10,40.841408,-73.92466,204,16,"2,103,169","2,025,220,020",211,BX0402
La Dura Food Corp,73 Featherbed Lane,,Bronx,10452,2023,10,40.846355,-73.917433,205,14,"2,008,807","2,028,760,035","21,502",BX0501
La Milagrosa,1052 Gerard Avenue,,Bronx,10452,2023,10,40.831869,-73.922365,204,16,"2,002,943","2,024,780,001",195,BX0401
Nicky Deli,1147 River Avenue,,Bronx,10452,2023,10,40.834399,-73.922088,204,16,"2,003,029","2,024,960,081",197,BX0401
711 Food Mart & Deli Corp,711 Knickerbocker Avenue,,Brooklyn,11221,2023,10,40.694203,-73.910236,304,37,"3,078,035","3,033,920,010",437,BK0402
Mini Market,716 Knickerbocker Avenue,,Brooklyn,11221,2023,10,40.694189,-73.91025,304,37,"3,077,994","3,033,910,028",437,BK0402
Woodbine Natural Deli Inc,279 Woodbine Avenue,,Brooklyn,11221,2023,10,,,,,,,,
Your Deal Food Corp,472 Wilson Avenue,,Brooklyn,11221,2023,10,40.692843,-73.911925,304,37,"3,077,601","3,033,830,041",415,BK0402
Linden & Wilson Corp,338 Wilson Avenue,,Brooklyn,11221,2023,10,40.695765,-73.917053,304,37,"3,076,293","3,033,330,031",417,BK0402
King Central Deli Inc,468 Central Avenue,,Brooklyn,11221,2023,10,40.692222,-73.914876,304,37,"3,077,032","3,033,680,040",415,BK0402
Banderas Food Corp,388 Central Avenue,,Brooklyn,11221,2023,10,40.693973,-73.917946,304,37,"3,076,272","3,033,320,040",417,BK0402
La Cana Food Corp,346 central Avenue,,Brooklyn,11221,2023,10,40.694987,-73.919737,304,37,"3,075,894","3,033,140,046",419,BK0402
Ranchadero Food Corp,543 Evergreen Avenue,,Brooklyn,11221,2023,10,40.689908,-73.914807,304,37,"3,077,530","3,033,820,001",415,BK0402
Far Deli Corp,560 Greene Avenue,,Brooklyn,11221,2023,10,40.688729,-73.948238,303,36,"3,050,417","3,017,980,040",251,BK0301
El Aguila Mini Market Corp,1192 Gates Avenue,,Brooklyn,11221,2023,10,40.691959,-73.919629,304,37,"3,076,428","3,033,400,017",399,BK0402
Laziza Deli & Grocery Corp,418 Evergreen Avenue,,Brooklyn,11221,2023,10,40.693084,-73.921871,304,37,"3,338,488","3,033,130,009",395,BK0402
Gm Bani Deli Grocery Corp,311 Evergreen Avenue,,Brooklyn,11221,2023,10,40.694499,-73.924354,304,37,"3,074,680","3,032,750,001",421,BK0401
291 Dicayagua Grocery Inc,291 Evergreen,,Brooklyn,11221,2023,10,,,,,,,,
Salt & Pepper Deli & Grill Llc,854 Bushwick Avenue,,Brooklyn,11221,2023,10,40.694154,-73.926525,304,34,"3,074,020","3,032,520,035",393,BK0401
Kev & J Grocery Inc,1195 Bushwick Avenue,,Brooklyn,11221,2023,10,40.688433,-73.916251,304,37,"3,077,479","3,033,810,001",399,BK0402
Prince Broadway Deli Corp,1432 Broadway,,Brooklyn,11221,2023,10,40.688141,-73.919706,303,41,"3,039,723","3,014,840,014",375,BK0302
Howard Natural Food Corp,8 Howard Avenue,,Brooklyn,11221,2023,10,40.688516,-73.921126,303,41,"3,346,554","3,014,810,039",375,BK0302
1291 Food Corp,1291 Broadway,,Brooklyn,11221,2023,10,40.69081,-73.924333,304,37,"3,326,377","3,032,930,029",395,BK0402
Tasty Gourmet And Deli Corp,1060 Greene Avenue,,Brooklyn,11221,2023,10,40.691354,-73.925396,303,41,"3,044,197","3,016,230,036",387,BK0302
1165 Fresh Produce Corp,1165 Broadway,,Brooklyn,11221,2023,10,40.692953,-73.928106,304,34,"3,387,789","3,032,520,003",393,BK0401
Best Deli And Grocery,671 Bushwick Avenue,,Brooklyn,11221,2023,10,40.697504,-73.932591,304,34,"3,072,437","3,031,830,003",391,BK0401
1305 Myrtle Llc,1305 Myrtle Llc,,Brooklyn,11221,2023,10,,,,,,,,
Sunrise Deli & Grill Corp,214 Central Avenue,,Brooklyn,11221,2023,10,40.697996,-73.924999,304,34,"3,073,771","3,032,430,042",421,BK0401
Jessica Deli Grocery Corp,418 Jefferson Avenue,,Brooklyn,11221,2023,10,40.684342,-73.940778,303,36,"3,052,490","3,018,360,007",275,BK0302
Inlet Market Corp,416 Monroe Street,,Brooklyn,11221,2023,10,40.686439,-73.942063,303,36,"3,051,504","3,018,200,043",265,BK0301
Healthy Organic Market Inc,370 Throop Avenue,,Brooklyn,11221,2023,10,40.691515,-73.94265,303,36,"3,049,832","3,017,860,035",261,BK0301
Cee Food Corp,844 Dekalb Avenue,,Brooklyn,11221,2023,10,40.692423,-73.942155,303,36,"3,049,690","3,017,820,010",281,BK0302
Prestige Gourmet Deli Corp,362  Marcus Garvey,,Brooklyn,11221,2023,10,,,,,,,,
G-O Deli Ortiz  Guarionex,268 Marcus Garvey,,Brooklyn,11221,2023,10,,,,,,,,
One Stop Deli & More,732 Marcus Garvey,,Brooklyn,11221,2023,10,,,,,,,,
Pastrami Deli & Grocery Corp,902 Dekalb Avenue,,Brooklyn,11221,2023,10,40.692702,-73.939736,303,36,"3,043,205","3,016,010,002",281,BK0302
Liam Deli Grocery Ny Corp,892 Dekalb Avenue,,Brooklyn,11221,2023,10,40.692601,-73.940623,303,36,"3,049,699","3,017,820,035",281,BK0302
Awgarey Abdullah’s+A71:A94+A71:A94,567 Jefferson Avenue,,Brooklyn,11221,2023,10,40.685022,-73.935008,303,36,"3,045,460","3,016,500,076",295,BK0302
Novatos Grocery Corp,228 Lewis Avenue,,Brooklyn,11221,2023,10,40.688734,-73.936205,303,36,"3,044,235","3,016,240,050",279,BK0302
Ameer Gourmet Deli Corp,209 Lewis Avenue,,Brooklyn,11221,2023,10,40.689288,-73.935996,303,36,"3,044,269","3,016,250,010",291,BK0302
Kings Gourmet Deli Inc,144 Lewis Avenue,,Brooklyn,11221,2023,10,40.692028,-73.936866,303,36,"3,043,347","3,016,050,039",281,BK0302
Stuyvesant Deli Grocery Corp,59 Stuyvesant Avenue,,Brooklyn,11221,2023,10,40.693937,-73.934232,303,36,"3,043,164","3,015,990,008",289,BK0302
Greene Market Inc,137 Stuyvesant  Avenue,,Brooklyn,11221,2023,10,40.690538,-73.933553,303,36,"3,043,852","3,016,160,097",291,BK0302
Lewis Deli & Grocery Corp,334 Lewis Avenue,,Brooklyn,11221,2023,10,40.684342,-73.935333,303,36,"3,045,693","3,016,540,042",275,BK0302
Good Times Deli & Grocery Corp,857 Greene Avenue,,Brooklyn,11221,2023,10,40.690385,-73.933983,303,36,"3,043,787","3,016,150,046",291,BK0302
Jazlynn Deli Grocery Corp,222 Stuyvesant Avenue,,Brooklyn,11221,2023,10,40.687387,-73.932947,303,36,"3,337,987","3,016,400,044",293,BK0302
Mechy Food Store Corp,895 Gates Avenue,,Brooklyn,11221,2023,10,40.688623,-73.929744,303,36,"3,044,572","3,016,320,079",387,BK0302
Green Deli Mart Inc,33 Patchen Avenue,,Brooklyn,11221,2023,10,40.691322,-73.927725,303,41,"3,043,927","3,016,180,001",387,BK0302
Patchen Deli Grocery Corp,156 Patchen Avenue,,Brooklyn,11221,2023,10,40.686134,-73.926718,303,36,"3,045,562","3,016,520,045",385,BK0302
Patchen Gourmet Grill Corp,139 Patchen Avenue,,Brooklyn,11221,2023,10,40.686815,-73.926829,303,41,"3,045,312","3,016,480,001",385,BK0302
107 Ralph Avenue Corp,107 Ralph Avenue,,Brooklyn,11221,2023,10,40.686456,-73.923407,303,41,"3,039,804","3,014,850,076",375,BK0302
NYC Deli Food Corp,87 Ralph Avenue,,Brooklyn,11221,2023,10,40.687189,-73.923554,303,41,"3,039,677","3,014,830,001",375,BK0302
World Health Juice Bar Deli 2 Corp,48 Ralph Avenue,,Brooklyn,11221,2023,10,40.688649,-73.923866,303,41,"3,044,731","3,016,380,051",385,BK0302
Gutierrez Grocery Corp,545 Kickerbocker Avenue,,Brooklyn,11221,2023,10,,,,,,,,
960 Summer Deli Grocery Corp,960 Dekalb Avenue,,Brooklyn,11221,2023,10,40.693024,-73.936962,303,36,"3,043,241","3,016,020,008",289,BK0302
200 Malcolm X Meat Corp,200 Malcolm X BLVD,,Brooklyn,11221,2023,10,40.686578,-73.9298,303,36,"3,045,219","3,016,460,043",293,BK0302
Piggy  Meat Corp,301 Marcus Garvey BLVD,,Brooklyn,11221,2023,10,40.687193,-73.938868,303,36,"3,325,019","3,016,340,001",277,BK0302
Natural And Organic Deli Corp,1203 Myrtle Avenue,,Brooklyn,11221,2023,10,40.697358,-73.931971,304,34,"3,072,462","3,031,830,084",391,BK0401
Keita West African Market Inc,1225 Broadway,,Brooklyn,11221,2023,10,40.691837,-73.926142,304,37,"3,074,943","3,032,830,008",395,BK0402
Organic Fresh Market Corps,1440 Broadway,,Brooklyn,11221,2023,10,40.688051,-73.919544,303,41,"3,039,726","3,014,840,015",375,BK0302
City Star Deli Corp,1104 Bushwick,,Brooklyn,11221,2023,10,,,,,,,,
